<?xml version="1.0" encoding="UTF-8"?>
<gpx xmlns:gpxdata="http://www.cluetrust.com/XML/GPXDATA/1/0" xmlns:xsi="http://www.w3.org/2001/XMLSchema-instance" xmlns="http://www.topografix.com/GPX/1/1" version="1.1" creator="http://ridewithgps.com/" xsi:schemaLocation="http://www.topografix.com/GPX/1/1 http://www.topografix.com/GPX/1/1/gpx.xsd http://www.cluetrust.com/XML/GPXDATA/1/0 http://www.cluetrust.com/Schemas/gpxdata10.xsd">
  <metadata>
    <name>CZ_1</name>
    <link href="https://ridewithgps.com/routes/54979280">
      <text>CZ_1</text>
    </link>
    <time>2026-05-05T08:56:41Z</time>
  </metadata>
  <trk>
    <name>CZ_1</name>
    <trkseg>
      <trkpt lat="30.275881" lon="-91.899292">
        <ele>6.6</ele>
      </trkpt>
      <trkpt lat="30.275965" lon="-91.89949">
        <ele>6.3</ele>
      </trkpt>
      <trkpt lat="30.276184" lon="-91.900139">
        <ele>6.6</ele>
      </trkpt>
      <trkpt lat="30.276192" lon="-91.900185">
        <ele>6.6</ele>
      </trkpt>
      <trkpt lat="30.276173" lon="-91.900276">
        <ele>6.6</ele>
      </trkpt>
      <trkpt lat="30.276127" lon="-91.900352">
        <ele>6.8</ele>
      </trkpt>
      <trkpt lat="30.276062" lon="-91.900414">
        <ele>6.8</ele>
      </trkpt>
      <trkpt lat="30.275902" lon="-91.900497">
        <ele>6.3</ele>
      </trkpt>
      <trkpt lat="30.275602" lon="-91.900734">
        <ele>5.8</ele>
      </trkpt>
      <trkpt lat="30.27507" lon="-91.901215">
        <ele>8.0</ele>
      </trkpt>
      <trkpt lat="30.275015" lon="-91.901283">
        <ele>7.6</ele>
      </trkpt>
      <trkpt lat="30.275017" lon="-91.901337">
        <ele>7.3</ele>
      </trkpt>
      <trkpt lat="30.275051" lon="-91.901413">
        <ele>7.1</ele>
      </trkpt>
      <trkpt lat="30.275339" lon="-91.901848">
        <ele>7.0</ele>
      </trkpt>
      <trkpt lat="30.27564" lon="-91.90229">
        <ele>7.3</ele>
      </trkpt>
      <trkpt lat="30.275858" lon="-91.90258">
        <ele>7.1</ele>
      </trkpt>
      <trkpt lat="30.276005" lon="-91.902824">
        <ele>7.3</ele>
      </trkpt>
      <trkpt lat="30.277037" lon="-91.90435">
        <ele>8.1</ele>
      </trkpt>
      <trkpt lat="30.277185" lon="-91.904617">
        <ele>8.0</ele>
      </trkpt>
      <trkpt lat="30.27729" lon="-91.904922">
        <ele>8.1</ele>
      </trkpt>
      <trkpt lat="30.277422" lon="-91.905502">
        <ele>8.1</ele>
      </trkpt>
      <trkpt lat="30.277578" lon="-91.90596">
        <ele>8.1</ele>
      </trkpt>
      <trkpt lat="30.277735" lon="-91.906334">
        <ele>8.0</ele>
      </trkpt>
      <trkpt lat="30.277842" lon="-91.9067">
        <ele>7.8</ele>
      </trkpt>
      <trkpt lat="30.27784" lon="-91.906799">
        <ele>8.0</ele>
      </trkpt>
      <trkpt lat="30.277779" lon="-91.906944">
        <ele>8.1</ele>
      </trkpt>
      <trkpt lat="30.2775" lon="-91.907227">
        <ele>8.1</ele>
      </trkpt>
      <trkpt lat="30.277449" lon="-91.907303">
        <ele>8.1</ele>
      </trkpt>
      <trkpt lat="30.277447" lon="-91.907387">
        <ele>8.3</ele>
      </trkpt>
      <trkpt lat="30.277481" lon="-91.907494">
        <ele>8.6</ele>
      </trkpt>
      <trkpt lat="30.2789" lon="-91.909904">
        <ele>9.6</ele>
      </trkpt>
      <trkpt lat="30.279734" lon="-91.911385">
        <ele>10.0</ele>
      </trkpt>
      <trkpt lat="30.28017" lon="-91.912262">
        <ele>9.6</ele>
      </trkpt>
      <trkpt lat="30.280222" lon="-91.912331">
        <ele>9.1</ele>
      </trkpt>
      <trkpt lat="30.280401" lon="-91.912781">
        <ele>8.8</ele>
      </trkpt>
      <trkpt lat="30.280611" lon="-91.913406">
        <ele>8.6</ele>
      </trkpt>
      <trkpt lat="30.280851" lon="-91.914047">
        <ele>8.1</ele>
      </trkpt>
      <trkpt lat="30.281113" lon="-91.914642">
        <ele>8.3</ele>
      </trkpt>
      <trkpt lat="30.282497" lon="-91.917633">
        <ele>8.0</ele>
      </trkpt>
      <trkpt lat="30.283154" lon="-91.918999">
        <ele>7.8</ele>
      </trkpt>
      <trkpt lat="30.283464" lon="-91.919548">
        <ele>7.6</ele>
      </trkpt>
      <trkpt lat="30.284016" lon="-91.920387">
        <ele>7.8</ele>
      </trkpt>
      <trkpt lat="30.284107" lon="-91.92054">
        <ele>7.6</ele>
      </trkpt>
      <trkpt lat="30.284115" lon="-91.920578">
        <ele>7.6</ele>
      </trkpt>
      <trkpt lat="30.284107" lon="-91.920601">
        <ele>7.6</ele>
      </trkpt>
      <trkpt lat="30.284065" lon="-91.920586">
        <ele>7.3</ele>
      </trkpt>
      <trkpt lat="30.283949" lon="-91.920403">
        <ele>7.8</ele>
      </trkpt>
      <trkpt lat="30.283867" lon="-91.920372">
        <ele>8.0</ele>
      </trkpt>
      <trkpt lat="30.283823" lon="-91.920387">
        <ele>8.0</ele>
      </trkpt>
      <trkpt lat="30.283714" lon="-91.920509">
        <ele>8.0</ele>
      </trkpt>
      <trkpt lat="30.283422" lon="-91.920959">
        <ele>8.1</ele>
      </trkpt>
      <trkpt lat="30.282375" lon="-91.922691">
        <ele>6.8</ele>
      </trkpt>
      <trkpt lat="30.282005" lon="-91.92334">
        <ele>6.3</ele>
      </trkpt>
      <trkpt lat="30.281281" lon="-91.924545">
        <ele>5.8</ele>
      </trkpt>
      <trkpt lat="30.279263" lon="-91.927879">
        <ele>5.3</ele>
      </trkpt>
      <trkpt lat="30.278542" lon="-91.929047">
        <ele>5.8</ele>
      </trkpt>
      <trkpt lat="30.278103" lon="-91.929718">
        <ele>6.3</ele>
      </trkpt>
      <trkpt lat="30.277119" lon="-91.931366">
        <ele>6.8</ele>
      </trkpt>
      <trkpt lat="30.276796" lon="-91.93187">
        <ele>7.0</ele>
      </trkpt>
      <trkpt lat="30.27598" lon="-91.933266">
        <ele>7.3</ele>
      </trkpt>
      <trkpt lat="30.27549" lon="-91.934036">
        <ele>7.3</ele>
      </trkpt>
      <trkpt lat="30.274673" lon="-91.935425">
        <ele>7.0</ele>
      </trkpt>
      <trkpt lat="30.273628" lon="-91.937126">
        <ele>6.8</ele>
      </trkpt>
      <trkpt lat="30.273241" lon="-91.937782">
        <ele>7.3</ele>
      </trkpt>
      <trkpt lat="30.273172" lon="-91.937927">
        <ele>7.3</ele>
      </trkpt>
      <trkpt lat="30.273148" lon="-91.938011">
        <ele>7.3</ele>
      </trkpt>
      <trkpt lat="30.273134" lon="-91.938179">
        <ele>7.3</ele>
      </trkpt>
      <trkpt lat="30.273178" lon="-91.938339">
        <ele>7.3</ele>
      </trkpt>
      <trkpt lat="30.273726" lon="-91.939331">
        <ele>7.3</ele>
      </trkpt>
      <trkpt lat="30.274038" lon="-91.939857">
        <ele>7.1</ele>
      </trkpt>
      <trkpt lat="30.274385" lon="-91.940529">
        <ele>7.3</ele>
      </trkpt>
      <trkpt lat="30.275854" lon="-91.944077">
        <ele>6.1</ele>
      </trkpt>
      <trkpt lat="30.27635" lon="-91.945206">
        <ele>6.3</ele>
      </trkpt>
      <trkpt lat="30.276558" lon="-91.945633">
        <ele>6.3</ele>
      </trkpt>
      <trkpt lat="30.276985" lon="-91.946274">
        <ele>6.3</ele>
      </trkpt>
      <trkpt lat="30.277634" lon="-91.947166">
        <ele>6.3</ele>
      </trkpt>
      <trkpt lat="30.27837" lon="-91.948235">
        <ele>5.8</ele>
      </trkpt>
      <trkpt lat="30.278967" lon="-91.949066">
        <ele>6.0</ele>
      </trkpt>
      <trkpt lat="30.279173" lon="-91.94928">
        <ele>6.1</ele>
      </trkpt>
      <trkpt lat="30.279383" lon="-91.949455">
        <ele>6.6</ele>
      </trkpt>
      <trkpt lat="30.279594" lon="-91.949577">
        <ele>7.1</ele>
      </trkpt>
      <trkpt lat="30.279806" lon="-91.949661">
        <ele>8.1</ele>
      </trkpt>
      <trkpt lat="30.280014" lon="-91.949722">
        <ele>9.3</ele>
      </trkpt>
      <trkpt lat="30.281025" lon="-91.949936">
        <ele>12.6</ele>
      </trkpt>
      <trkpt lat="30.285107" lon="-91.950737">
        <ele>6.8</ele>
      </trkpt>
      <trkpt lat="30.285685" lon="-91.950867">
        <ele>7.0</ele>
      </trkpt>
      <trkpt lat="30.286602" lon="-91.951035">
        <ele>7.0</ele>
      </trkpt>
      <trkpt lat="30.289015" lon="-91.951538">
        <ele>7.1</ele>
      </trkpt>
      <trkpt lat="30.28978" lon="-91.951675">
        <ele>7.0</ele>
      </trkpt>
      <trkpt lat="30.290819" lon="-91.951912">
        <ele>7.0</ele>
      </trkpt>
      <trkpt lat="30.291857" lon="-91.952118">
        <ele>7.3</ele>
      </trkpt>
      <trkpt lat="30.293112" lon="-91.952393">
        <ele>7.0</ele>
      </trkpt>
      <trkpt lat="30.293386" lon="-91.952431">
        <ele>7.0</ele>
      </trkpt>
      <trkpt lat="30.297461" lon="-91.9533">
        <ele>7.0</ele>
      </trkpt>
      <trkpt lat="30.297962" lon="-91.953384">
        <ele>7.1</ele>
      </trkpt>
      <trkpt lat="30.298243" lon="-91.953415">
        <ele>7.3</ele>
      </trkpt>
      <trkpt lat="30.300188" lon="-91.953804">
        <ele>7.6</ele>
      </trkpt>
      <trkpt lat="30.300606" lon="-91.953911">
        <ele>7.6</ele>
      </trkpt>
      <trkpt lat="30.301098" lon="-91.954002">
        <ele>7.6</ele>
      </trkpt>
      <trkpt lat="30.303551" lon="-91.954529">
        <ele>7.6</ele>
      </trkpt>
      <trkpt lat="30.303864" lon="-91.954605">
        <ele>7.8</ele>
      </trkpt>
      <trkpt lat="30.303917" lon="-91.954643">
        <ele>7.8</ele>
      </trkpt>
      <trkpt lat="30.303957" lon="-91.954689">
        <ele>7.8</ele>
      </trkpt>
      <trkpt lat="30.303982" lon="-91.95475">
        <ele>8.0</ele>
      </trkpt>
      <trkpt lat="30.303961" lon="-91.954903">
        <ele>8.0</ele>
      </trkpt>
      <trkpt lat="30.303381" lon="-91.9571">
        <ele>5.6</ele>
      </trkpt>
      <trkpt lat="30.302872" lon="-91.959206">
        <ele>5.1</ele>
      </trkpt>
      <trkpt lat="30.302166" lon="-91.961784">
        <ele>5.1</ele>
      </trkpt>
      <trkpt lat="30.302135" lon="-91.961937">
        <ele>5.1</ele>
      </trkpt>
      <trkpt lat="30.30213" lon="-91.962105">
        <ele>5.3</ele>
      </trkpt>
      <trkpt lat="30.303247" lon="-91.969101">
        <ele>5.1</ele>
      </trkpt>
      <trkpt lat="30.30348" lon="-91.970627">
        <ele>5.6</ele>
      </trkpt>
      <trkpt lat="30.303686" lon="-91.972137">
        <ele>4.8</ele>
      </trkpt>
      <trkpt lat="30.304266" lon="-91.975876">
        <ele>4.8</ele>
      </trkpt>
      <trkpt lat="30.304281" lon="-91.976128">
        <ele>4.6</ele>
      </trkpt>
      <trkpt lat="30.304256" lon="-91.976295">
        <ele>4.6</ele>
      </trkpt>
      <trkpt lat="30.304188" lon="-91.976524">
        <ele>4.3</ele>
      </trkpt>
      <trkpt lat="30.303894" lon="-91.977272">
        <ele>4.8</ele>
      </trkpt>
      <trkpt lat="30.303843" lon="-91.977516">
        <ele>4.8</ele>
      </trkpt>
      <trkpt lat="30.303839" lon="-91.977692">
        <ele>4.8</ele>
      </trkpt>
      <trkpt lat="30.303865" lon="-91.977951">
        <ele>4.8</ele>
      </trkpt>
      <trkpt lat="30.304094" lon="-91.979591">
        <ele>4.3</ele>
      </trkpt>
      <trkpt lat="30.304161" lon="-91.980255">
        <ele>4.1</ele>
      </trkpt>
      <trkpt lat="30.304449" lon="-91.982124">
        <ele>4.3</ele>
      </trkpt>
      <trkpt lat="30.304779" lon="-91.98465">
        <ele>4.6</ele>
      </trkpt>
      <trkpt lat="30.304832" lon="-91.984863">
        <ele>4.8</ele>
      </trkpt>
      <trkpt lat="30.304989" lon="-91.985352">
        <ele>5.0</ele>
      </trkpt>
      <trkpt lat="30.305084" lon="-91.985596">
        <ele>4.8</ele>
      </trkpt>
      <trkpt lat="30.305267" lon="-91.985954">
        <ele>4.3</ele>
      </trkpt>
      <trkpt lat="30.305435" lon="-91.986198">
        <ele>4.1</ele>
      </trkpt>
      <trkpt lat="30.305639" lon="-91.986412">
        <ele>4.3</ele>
      </trkpt>
      <trkpt lat="30.305826" lon="-91.986526">
        <ele>4.6</ele>
      </trkpt>
      <trkpt lat="30.305965" lon="-91.986588">
        <ele>4.8</ele>
      </trkpt>
      <trkpt lat="30.306515" lon="-91.986755">
        <ele>4.8</ele>
      </trkpt>
      <trkpt lat="30.306643" lon="-91.986809">
        <ele>4.6</ele>
      </trkpt>
      <trkpt lat="30.30682" lon="-91.986916">
        <ele>4.3</ele>
      </trkpt>
      <trkpt lat="30.306984" lon="-91.987061">
        <ele>4.1</ele>
      </trkpt>
      <trkpt lat="30.30722" lon="-91.987358">
        <ele>4.0</ele>
      </trkpt>
      <trkpt lat="30.307674" lon="-91.988045">
        <ele>4.1</ele>
      </trkpt>
      <trkpt lat="30.307932" lon="-91.98848">
        <ele>4.1</ele>
      </trkpt>
      <trkpt lat="30.308172" lon="-91.988937">
        <ele>4.3</ele>
      </trkpt>
      <trkpt lat="30.308325" lon="-91.989128">
        <ele>5.0</ele>
      </trkpt>
      <trkpt lat="30.308449" lon="-91.989204">
        <ele>5.1</ele>
      </trkpt>
      <trkpt lat="30.308584" lon="-91.98925">
        <ele>5.1</ele>
      </trkpt>
      <trkpt lat="30.308796" lon="-91.989281">
        <ele>5.6</ele>
      </trkpt>
      <trkpt lat="30.309004" lon="-91.989258">
        <ele>5.3</ele>
      </trkpt>
      <trkpt lat="30.30938" lon="-91.989166">
        <ele>5.1</ele>
      </trkpt>
      <trkpt lat="30.30946" lon="-91.989197">
        <ele>5.0</ele>
      </trkpt>
      <trkpt lat="30.309502" lon="-91.989273">
        <ele>5.0</ele>
      </trkpt>
      <trkpt lat="30.309658" lon="-91.990143">
        <ele>5.0</ele>
      </trkpt>
      <trkpt lat="30.309677" lon="-91.990196">
        <ele>5.0</ele>
      </trkpt>
      <trkpt lat="30.309711" lon="-91.990234">
        <ele>5.0</ele>
      </trkpt>
      <trkpt lat="30.309811" lon="-91.990273">
        <ele>5.1</ele>
      </trkpt>
      <trkpt lat="30.310148" lon="-91.990318">
        <ele>5.3</ele>
      </trkpt>
      <trkpt lat="30.310387" lon="-91.99025">
        <ele>5.6</ele>
      </trkpt>
      <trkpt lat="30.310602" lon="-91.990158">
        <ele>5.6</ele>
      </trkpt>
      <trkpt lat="30.31078" lon="-91.990112">
        <ele>5.6</ele>
      </trkpt>
      <trkpt lat="30.310909" lon="-91.990097">
        <ele>5.6</ele>
      </trkpt>
      <trkpt lat="30.311029" lon="-91.99012">
        <ele>5.8</ele>
      </trkpt>
      <trkpt lat="30.311192" lon="-91.990227">
        <ele>5.8</ele>
      </trkpt>
      <trkpt lat="30.311289" lon="-91.990318">
        <ele>5.8</ele>
      </trkpt>
      <trkpt lat="30.311897" lon="-91.991035">
        <ele>6.3</ele>
      </trkpt>
      <trkpt lat="30.312263" lon="-91.991501">
        <ele>6.3</ele>
      </trkpt>
      <trkpt lat="30.312574" lon="-91.992027">
        <ele>6.3</ele>
      </trkpt>
      <trkpt lat="30.313004" lon="-91.992851">
        <ele>6.3</ele>
      </trkpt>
      <trkpt lat="30.313337" lon="-91.993408">
        <ele>6.6</ele>
      </trkpt>
      <trkpt lat="30.313726" lon="-91.993965">
        <ele>6.8</ele>
      </trkpt>
      <trkpt lat="30.314121" lon="-91.994438">
        <ele>6.3</ele>
      </trkpt>
      <trkpt lat="30.314287" lon="-91.994583">
        <ele>6.1</ele>
      </trkpt>
      <trkpt lat="30.314476" lon="-91.994713">
        <ele>6.1</ele>
      </trkpt>
      <trkpt lat="30.314678" lon="-91.994827">
        <ele>6.0</ele>
      </trkpt>
      <trkpt lat="30.314888" lon="-91.994896">
        <ele>6.1</ele>
      </trkpt>
      <trkpt lat="30.31509" lon="-91.994987">
        <ele>6.1</ele>
      </trkpt>
      <trkpt lat="30.315264" lon="-91.995117">
        <ele>6.3</ele>
      </trkpt>
      <trkpt lat="30.315512" lon="-91.995392">
        <ele>6.6</ele>
      </trkpt>
      <trkpt lat="30.316231" lon="-91.996315">
        <ele>6.0</ele>
      </trkpt>
      <trkpt lat="30.316866" lon="-91.997078">
        <ele>5.6</ele>
      </trkpt>
      <trkpt lat="30.317245" lon="-91.997467">
        <ele>5.6</ele>
      </trkpt>
      <trkpt lat="30.317656" lon="-91.997833">
        <ele>5.6</ele>
      </trkpt>
      <trkpt lat="30.318451" lon="-91.998398">
        <ele>5.8</ele>
      </trkpt>
      <trkpt lat="30.318844" lon="-91.998573">
        <ele>5.6</ele>
      </trkpt>
      <trkpt lat="30.319561" lon="-91.998962">
        <ele>4.8</ele>
      </trkpt>
      <trkpt lat="30.319839" lon="-91.999077">
        <ele>4.6</ele>
      </trkpt>
      <trkpt lat="30.319983" lon="-91.999115">
        <ele>4.8</ele>
      </trkpt>
      <trkpt lat="30.320345" lon="-91.999176">
        <ele>5.0</ele>
      </trkpt>
      <trkpt lat="30.320847" lon="-91.99929">
        <ele>4.8</ele>
      </trkpt>
      <trkpt lat="30.321682" lon="-91.99958">
        <ele>4.8</ele>
      </trkpt>
      <trkpt lat="30.322035" lon="-91.999657">
        <ele>5.0</ele>
      </trkpt>
      <trkpt lat="30.322582" lon="-91.999748">
        <ele>5.3</ele>
      </trkpt>
      <trkpt lat="30.322866" lon="-91.999771">
        <ele>5.6</ele>
      </trkpt>
      <trkpt lat="30.323896" lon="-91.999763">
        <ele>6.3</ele>
      </trkpt>
      <trkpt lat="30.324825" lon="-91.999794">
        <ele>6.6</ele>
      </trkpt>
      <trkpt lat="30.325113" lon="-91.999771">
        <ele>6.3</ele>
      </trkpt>
      <trkpt lat="30.32559" lon="-91.999664">
        <ele>5.8</ele>
      </trkpt>
      <trkpt lat="30.326864" lon="-91.999214">
        <ele>5.6</ele>
      </trkpt>
      <trkpt lat="30.327351" lon="-91.999062">
        <ele>5.8</ele>
      </trkpt>
      <trkpt lat="30.327684" lon="-91.998924">
        <ele>6.1</ele>
      </trkpt>
      <trkpt lat="30.328011" lon="-91.998825">
        <ele>7.8</ele>
      </trkpt>
      <trkpt lat="30.328209" lon="-91.998802">
        <ele>9.0</ele>
      </trkpt>
      <trkpt lat="30.32836" lon="-91.998756">
        <ele>10.0</ele>
      </trkpt>
      <trkpt lat="30.329042" lon="-91.998634">
        <ele>12.6</ele>
      </trkpt>
      <trkpt lat="30.329279" lon="-91.998573">
        <ele>12.7</ele>
      </trkpt>
      <trkpt lat="30.329958" lon="-91.998459">
        <ele>13.3</ele>
      </trkpt>
      <trkpt lat="30.330235" lon="-91.998436">
        <ele>13.6</ele>
      </trkpt>
      <trkpt lat="30.330397" lon="-91.998398">
        <ele>13.7</ele>
      </trkpt>
      <trkpt lat="30.330496" lon="-91.998413">
        <ele>13.7</ele>
      </trkpt>
      <trkpt lat="30.330532" lon="-91.998451">
        <ele>13.7</ele>
      </trkpt>
      <trkpt lat="30.330549" lon="-91.998497">
        <ele>13.7</ele>
      </trkpt>
      <trkpt lat="30.330635" lon="-91.999336">
        <ele>14.3</ele>
      </trkpt>
      <trkpt lat="30.330826" lon="-92.000816">
        <ele>14.3</ele>
      </trkpt>
      <trkpt lat="30.331446" lon="-92.006203">
        <ele>13.2</ele>
      </trkpt>
      <trkpt lat="30.331461" lon="-92.006676">
        <ele>14.2</ele>
      </trkpt>
      <trkpt lat="30.331556" lon="-92.007332">
        <ele>14.2</ele>
      </trkpt>
      <trkpt lat="30.33173" lon="-92.00885">
        <ele>10.8</ele>
      </trkpt>
      <trkpt lat="30.332119" lon="-92.011726">
        <ele>14.3</ele>
      </trkpt>
      <trkpt lat="30.332256" lon="-92.012894">
        <ele>15.6</ele>
      </trkpt>
      <trkpt lat="30.332449" lon="-92.014259">
        <ele>12.0</ele>
      </trkpt>
      <trkpt lat="30.332537" lon="-92.015106">
        <ele>11.6</ele>
      </trkpt>
      <trkpt lat="30.332777" lon="-92.016861">
        <ele>13.6</ele>
      </trkpt>
      <trkpt lat="30.332989" lon="-92.018669">
        <ele>12.6</ele>
      </trkpt>
      <trkpt lat="30.333185" lon="-92.02018">
        <ele>12.3</ele>
      </trkpt>
      <trkpt lat="30.333378" lon="-92.021919">
        <ele>13.6</ele>
      </trkpt>
      <trkpt lat="30.333586" lon="-92.023468">
        <ele>14.3</ele>
      </trkpt>
      <trkpt lat="30.334269" lon="-92.028984">
        <ele>12.2</ele>
      </trkpt>
      <trkpt lat="30.33532" lon="-92.03688">
        <ele>13.7</ele>
      </trkpt>
      <trkpt lat="30.335445" lon="-92.037964">
        <ele>13.0</ele>
      </trkpt>
      <trkpt lat="30.33547" lon="-92.038071">
        <ele>13.0</ele>
      </trkpt>
      <trkpt lat="30.335501" lon="-92.038116">
        <ele>13.2</ele>
      </trkpt>
      <trkpt lat="30.335566" lon="-92.038162">
        <ele>13.0</ele>
      </trkpt>
      <trkpt lat="30.336201" lon="-92.038368">
        <ele>13.2</ele>
      </trkpt>
      <trkpt lat="30.336329" lon="-92.038399">
        <ele>13.2</ele>
      </trkpt>
      <trkpt lat="30.336395" lon="-92.038391">
        <ele>13.2</ele>
      </trkpt>
      <trkpt lat="30.33646" lon="-92.038361">
        <ele>13.3</ele>
      </trkpt>
      <trkpt lat="30.336748" lon="-92.038109">
        <ele>13.6</ele>
      </trkpt>
      <trkpt lat="30.336933" lon="-92.038002">
        <ele>13.3</ele>
      </trkpt>
      <trkpt lat="30.337122" lon="-92.037933">
        <ele>13.3</ele>
      </trkpt>
      <trkpt lat="30.337454" lon="-92.037857">
        <ele>13.6</ele>
      </trkpt>
      <trkpt lat="30.337727" lon="-92.037766">
        <ele>13.7</ele>
      </trkpt>
      <trkpt lat="30.337975" lon="-92.037628">
        <ele>14.0</ele>
      </trkpt>
      <trkpt lat="30.338184" lon="-92.037437">
        <ele>14.6</ele>
      </trkpt>
      <trkpt lat="30.33847" lon="-92.037033">
        <ele>14.7</ele>
      </trkpt>
      <trkpt lat="30.338604" lon="-92.036911">
        <ele>14.7</ele>
      </trkpt>
      <trkpt lat="30.338711" lon="-92.036896">
        <ele>14.7</ele>
      </trkpt>
      <trkpt lat="30.33881" lon="-92.036919">
        <ele>14.7</ele>
      </trkpt>
      <trkpt lat="30.338886" lon="-92.03698">
        <ele>14.7</ele>
      </trkpt>
      <trkpt lat="30.338913" lon="-92.037071">
        <ele>14.6</ele>
      </trkpt>
      <trkpt lat="30.338871" lon="-92.037193">
        <ele>14.7</ele>
      </trkpt>
      <trkpt lat="30.338703" lon="-92.037392">
        <ele>14.7</ele>
      </trkpt>
      <trkpt lat="30.338169" lon="-92.037933">
        <ele>15.0</ele>
      </trkpt>
      <trkpt lat="30.336388" lon="-92.039818">
        <ele>19.0</ele>
      </trkpt>
      <trkpt lat="30.335941" lon="-92.04026">
        <ele>17.2</ele>
      </trkpt>
      <trkpt lat="30.335812" lon="-92.040367">
        <ele>17.0</ele>
      </trkpt>
      <trkpt lat="30.335594" lon="-92.040497">
        <ele>16.6</ele>
      </trkpt>
      <trkpt lat="30.335289" lon="-92.040611">
        <ele>15.7</ele>
      </trkpt>
      <trkpt lat="30.334871" lon="-92.04068">
        <ele>15.6</ele>
      </trkpt>
      <trkpt lat="30.334463" lon="-92.040634">
        <ele>15.7</ele>
      </trkpt>
      <trkpt lat="30.333714" lon="-92.040466">
        <ele>15.0</ele>
      </trkpt>
      <trkpt lat="30.3335" lon="-92.040443">
        <ele>14.6</ele>
      </trkpt>
      <trkpt lat="30.333216" lon="-92.040459">
        <ele>14.3</ele>
      </trkpt>
      <trkpt lat="30.332939" lon="-92.04052">
        <ele>14.2</ele>
      </trkpt>
      <trkpt lat="30.330408" lon="-92.041595">
        <ele>14.0</ele>
      </trkpt>
      <trkpt lat="30.328657" lon="-92.042366">
        <ele>13.6</ele>
      </trkpt>
      <trkpt lat="30.327347" lon="-92.042984">
        <ele>12.3</ele>
      </trkpt>
      <trkpt lat="30.325771" lon="-92.04364">
        <ele>12.2</ele>
      </trkpt>
      <trkpt lat="30.325062" lon="-92.043968">
        <ele>12.0</ele>
      </trkpt>
      <trkpt lat="30.323971" lon="-92.044441">
        <ele>12.2</ele>
      </trkpt>
      <trkpt lat="30.323309" lon="-92.044701">
        <ele>12.3</ele>
      </trkpt>
      <trkpt lat="30.322325" lon="-92.045158">
        <ele>12.0</ele>
      </trkpt>
      <trkpt lat="30.322283" lon="-92.045212">
        <ele>11.8</ele>
      </trkpt>
      <trkpt lat="30.322279" lon="-92.045296">
        <ele>11.6</ele>
      </trkpt>
      <trkpt lat="30.322573" lon="-92.04628">
        <ele>12.2</ele>
      </trkpt>
      <trkpt lat="30.323065" lon="-92.048035">
        <ele>11.0</ele>
      </trkpt>
      <trkpt lat="30.32336" lon="-92.049294">
        <ele>10.3</ele>
      </trkpt>
      <trkpt lat="30.323364" lon="-92.049438">
        <ele>10.3</ele>
      </trkpt>
      <trkpt lat="30.323351" lon="-92.049484">
        <ele>10.1</ele>
      </trkpt>
      <trkpt lat="30.323298" lon="-92.049561">
        <ele>10.1</ele>
      </trkpt>
      <trkpt lat="30.323257" lon="-92.049583">
        <ele>10.1</ele>
      </trkpt>
      <trkpt lat="30.323158" lon="-92.049599">
        <ele>10.3</ele>
      </trkpt>
      <trkpt lat="30.322813" lon="-92.049583">
        <ele>10.3</ele>
      </trkpt>
      <trkpt lat="30.321371" lon="-92.049599">
        <ele>11.1</ele>
      </trkpt>
      <trkpt lat="30.321327" lon="-92.049614">
        <ele>11.1</ele>
      </trkpt>
      <trkpt lat="30.321291" lon="-92.049652">
        <ele>11.1</ele>
      </trkpt>
      <trkpt lat="30.321259" lon="-92.049774">
        <ele>11.1</ele>
      </trkpt>
      <trkpt lat="30.321276" lon="-92.05455">
        <ele>13.6</ele>
      </trkpt>
      <trkpt lat="30.321228" lon="-92.058975">
        <ele>13.3</ele>
      </trkpt>
      <trkpt lat="30.321243" lon="-92.070442">
        <ele>13.3</ele>
      </trkpt>
      <trkpt lat="30.32126" lon="-92.070488">
        <ele>13.3</ele>
      </trkpt>
      <trkpt lat="30.321295" lon="-92.070518">
        <ele>13.2</ele>
      </trkpt>
      <trkpt lat="30.321398" lon="-92.070557">
        <ele>13.0</ele>
      </trkpt>
      <trkpt lat="30.323067" lon="-92.070541">
        <ele>12.6</ele>
      </trkpt>
      <trkpt lat="30.323631" lon="-92.070557">
        <ele>12.7</ele>
      </trkpt>
      <trkpt lat="30.327808" lon="-92.07058">
        <ele>12.3</ele>
      </trkpt>
      <trkpt lat="30.32835" lon="-92.070595">
        <ele>12.3</ele>
      </trkpt>
      <trkpt lat="30.328444" lon="-92.070633">
        <ele>12.3</ele>
      </trkpt>
      <trkpt lat="30.328503" lon="-92.070732">
        <ele>12.3</ele>
      </trkpt>
      <trkpt lat="30.328514" lon="-92.070801">
        <ele>12.3</ele>
      </trkpt>
      <trkpt lat="30.328522" lon="-92.071022">
        <ele>12.3</ele>
      </trkpt>
      <trkpt lat="30.328495" lon="-92.071953">
        <ele>12.6</ele>
      </trkpt>
      <trkpt lat="30.328491" lon="-92.072876">
        <ele>12.6</ele>
      </trkpt>
      <trkpt lat="30.328499" lon="-92.075851">
        <ele>12.3</ele>
      </trkpt>
      <trkpt lat="30.32843" lon="-92.083168">
        <ele>11.1</ele>
      </trkpt>
      <trkpt lat="30.328403" lon="-92.084084">
        <ele>11.1</ele>
      </trkpt>
      <trkpt lat="30.328411" lon="-92.084976">
        <ele>11.0</ele>
      </trkpt>
      <trkpt lat="30.328371" lon="-92.085114">
        <ele>11.0</ele>
      </trkpt>
      <trkpt lat="30.328331" lon="-92.085167">
        <ele>11.0</ele>
      </trkpt>
      <trkpt lat="30.328222" lon="-92.085228">
        <ele>11.0</ele>
      </trkpt>
      <trkpt lat="30.327345" lon="-92.085373">
        <ele>11.1</ele>
      </trkpt>
      <trkpt lat="30.326569" lon="-92.085518">
        <ele>11.1</ele>
      </trkpt>
      <trkpt lat="30.326443" lon="-92.085556">
        <ele>10.8</ele>
      </trkpt>
      <trkpt lat="30.326487" lon="-92.085594">
        <ele>10.1</ele>
      </trkpt>
      <trkpt lat="30.326485" lon="-92.085793">
        <ele>11.3</ele>
      </trkpt>
      <trkpt lat="30.326506" lon="-92.085915">
        <ele>11.3</ele>
      </trkpt>
      <trkpt lat="30.326544" lon="-92.086571">
        <ele>12.0</ele>
      </trkpt>
      <trkpt lat="30.326555" lon="-92.087967">
        <ele>12.6</ele>
      </trkpt>
      <trkpt lat="30.326588" lon="-92.089462">
        <ele>13.2</ele>
      </trkpt>
      <trkpt lat="30.326586" lon="-92.090157">
        <ele>13.2</ele>
      </trkpt>
      <trkpt lat="30.326595" lon="-92.090584">
        <ele>13.2</ele>
      </trkpt>
      <trkpt lat="30.326614" lon="-92.090721">
        <ele>13.0</ele>
      </trkpt>
      <trkpt lat="30.326641" lon="-92.09079">
        <ele>13.0</ele>
      </trkpt>
      <trkpt lat="30.326735" lon="-92.090889">
        <ele>12.7</ele>
      </trkpt>
      <trkpt lat="30.326866" lon="-92.090935">
        <ele>12.7</ele>
      </trkpt>
      <trkpt lat="30.327267" lon="-92.090927">
        <ele>12.7</ele>
      </trkpt>
      <trkpt lat="30.328196" lon="-92.090874">
        <ele>12.0</ele>
      </trkpt>
      <trkpt lat="30.328442" lon="-92.090904">
        <ele>11.6</ele>
      </trkpt>
      <trkpt lat="30.328568" lon="-92.090942">
        <ele>11.6</ele>
      </trkpt>
      <trkpt lat="30.328684" lon="-92.091019">
        <ele>11.6</ele>
      </trkpt>
      <trkpt lat="30.328789" lon="-92.091125">
        <ele>11.6</ele>
      </trkpt>
      <trkpt lat="30.328884" lon="-92.091232">
        <ele>11.3</ele>
      </trkpt>
      <trkpt lat="30.328966" lon="-92.091362">
        <ele>11.3</ele>
      </trkpt>
      <trkpt lat="30.329153" lon="-92.091782">
        <ele>11.3</ele>
      </trkpt>
      <trkpt lat="30.329332" lon="-92.092239">
        <ele>11.1</ele>
      </trkpt>
      <trkpt lat="30.329384" lon="-92.092552">
        <ele>11.3</ele>
      </trkpt>
      <trkpt lat="30.329458" lon="-92.093788">
        <ele>11.6</ele>
      </trkpt>
      <trkpt lat="30.329489" lon="-92.094872">
        <ele>12.0</ele>
      </trkpt>
      <trkpt lat="30.329473" lon="-92.095383">
        <ele>12.0</ele>
      </trkpt>
      <trkpt lat="30.3295" lon="-92.095711">
        <ele>12.0</ele>
      </trkpt>
      <trkpt lat="30.329451" lon="-92.095932">
        <ele>12.0</ele>
      </trkpt>
      <trkpt lat="30.329384" lon="-92.096054">
        <ele>12.2</ele>
      </trkpt>
      <trkpt lat="30.329292" lon="-92.096176">
        <ele>12.0</ele>
      </trkpt>
      <trkpt lat="30.328836" lon="-92.096664">
        <ele>12.2</ele>
      </trkpt>
      <trkpt lat="30.328518" lon="-92.097038">
        <ele>11.8</ele>
      </trkpt>
      <trkpt lat="30.328329" lon="-92.097214">
        <ele>11.8</ele>
      </trkpt>
      <trkpt lat="30.328087" lon="-92.097389">
        <ele>11.6</ele>
      </trkpt>
      <trkpt lat="30.328045" lon="-92.097435">
        <ele>11.6</ele>
      </trkpt>
      <trkpt lat="30.328009" lon="-92.097481">
        <ele>11.6</ele>
      </trkpt>
      <trkpt lat="30.327978" lon="-92.097595">
        <ele>11.3</ele>
      </trkpt>
      <trkpt lat="30.327974" lon="-92.100868">
        <ele>11.6</ele>
      </trkpt>
      <trkpt lat="30.327995" lon="-92.103371">
        <ele>12.0</ele>
      </trkpt>
      <trkpt lat="30.327986" lon="-92.106407">
        <ele>12.2</ele>
      </trkpt>
      <trkpt lat="30.328005" lon="-92.107071">
        <ele>12.2</ele>
      </trkpt>
      <trkpt lat="30.327991" lon="-92.111221">
        <ele>11.8</ele>
      </trkpt>
      <trkpt lat="30.328007" lon="-92.113907">
        <ele>11.8</ele>
      </trkpt>
      <trkpt lat="30.327997" lon="-92.114746">
        <ele>11.6</ele>
      </trkpt>
      <trkpt lat="30.327974" lon="-92.115074">
        <ele>11.0</ele>
      </trkpt>
      <trkpt lat="30.327955" lon="-92.11515">
        <ele>10.8</ele>
      </trkpt>
      <trkpt lat="30.327915" lon="-92.115219">
        <ele>10.6</ele>
      </trkpt>
      <trkpt lat="30.327856" lon="-92.115234">
        <ele>10.3</ele>
      </trkpt>
      <trkpt lat="30.327818" lon="-92.115204">
        <ele>10.6</ele>
      </trkpt>
      <trkpt lat="30.327906" lon="-92.115196">
        <ele>11.1</ele>
      </trkpt>
      <trkpt lat="30.327944" lon="-92.115211">
        <ele>11.0</ele>
      </trkpt>
      <trkpt lat="30.327974" lon="-92.115257">
        <ele>10.6</ele>
      </trkpt>
      <trkpt lat="30.328003" lon="-92.115898">
        <ele>11.0</ele>
      </trkpt>
      <trkpt lat="30.328041" lon="-92.115944">
        <ele>10.8</ele>
      </trkpt>
      <trkpt lat="30.328114" lon="-92.115967">
        <ele>10.6</ele>
      </trkpt>
      <trkpt lat="30.329451" lon="-92.115982">
        <ele>11.1</ele>
      </trkpt>
      <trkpt lat="30.329914" lon="-92.115974">
        <ele>11.6</ele>
      </trkpt>
      <trkpt lat="30.330191" lon="-92.115952">
        <ele>11.6</ele>
      </trkpt>
      <trkpt lat="30.330692" lon="-92.115891">
        <ele>12.0</ele>
      </trkpt>
      <trkpt lat="30.330894" lon="-92.115852">
        <ele>12.0</ele>
      </trkpt>
      <trkpt lat="30.331465" lon="-92.115715">
        <ele>10.6</ele>
      </trkpt>
      <trkpt lat="30.33219" lon="-92.115479">
        <ele>10.8</ele>
      </trkpt>
      <trkpt lat="30.33231" lon="-92.115463">
        <ele>11.0</ele>
      </trkpt>
      <trkpt lat="30.332361" lon="-92.115486">
        <ele>11.0</ele>
      </trkpt>
      <trkpt lat="30.332397" lon="-92.11554">
        <ele>11.0</ele>
      </trkpt>
      <trkpt lat="30.332413" lon="-92.115608">
        <ele>10.8</ele>
      </trkpt>
      <trkpt lat="30.332403" lon="-92.115837">
        <ele>10.8</ele>
      </trkpt>
      <trkpt lat="30.332415" lon="-92.115906">
        <ele>10.8</ele>
      </trkpt>
      <trkpt lat="30.332447" lon="-92.115967">
        <ele>10.8</ele>
      </trkpt>
      <trkpt lat="30.332499" lon="-92.116013">
        <ele>10.8</ele>
      </trkpt>
      <trkpt lat="30.332558" lon="-92.116028">
        <ele>10.6</ele>
      </trkpt>
      <trkpt lat="30.333771" lon="-92.116051">
        <ele>10.0</ele>
      </trkpt>
      <trkpt lat="30.335018" lon="-92.116051">
        <ele>10.3</ele>
      </trkpt>
      <trkpt lat="30.335127" lon="-92.116066">
        <ele>10.8</ele>
      </trkpt>
      <trkpt lat="30.33522" lon="-92.116119">
        <ele>10.8</ele>
      </trkpt>
      <trkpt lat="30.335253" lon="-92.116173">
        <ele>11.0</ele>
      </trkpt>
      <trkpt lat="30.335276" lon="-92.116295">
        <ele>11.1</ele>
      </trkpt>
      <trkpt lat="30.335285" lon="-92.124207">
        <ele>12.0</ele>
      </trkpt>
      <trkpt lat="30.335308" lon="-92.124336">
        <ele>11.8</ele>
      </trkpt>
      <trkpt lat="30.335346" lon="-92.12439">
        <ele>11.8</ele>
      </trkpt>
      <trkpt lat="30.335398" lon="-92.12442">
        <ele>11.8</ele>
      </trkpt>
      <trkpt lat="30.335567" lon="-92.124435">
        <ele>11.3</ele>
      </trkpt>
      <trkpt lat="30.336121" lon="-92.124413">
        <ele>10.8</ele>
      </trkpt>
      <trkpt lat="30.337193" lon="-92.12442">
        <ele>11.0</ele>
      </trkpt>
      <trkpt lat="30.338305" lon="-92.124405">
        <ele>11.3</ele>
      </trkpt>
      <trkpt lat="30.339191" lon="-92.124435">
        <ele>10.8</ele>
      </trkpt>
      <trkpt lat="30.341433" lon="-92.124443">
        <ele>10.3</ele>
      </trkpt>
      <trkpt lat="30.341627" lon="-92.124458">
        <ele>10.6</ele>
      </trkpt>
      <trkpt lat="30.342682" lon="-92.124458">
        <ele>10.3</ele>
      </trkpt>
      <trkpt lat="30.342945" lon="-92.124474">
        <ele>10.1</ele>
      </trkpt>
      <trkpt lat="30.344133" lon="-92.124466">
        <ele>10.1</ele>
      </trkpt>
      <trkpt lat="30.345049" lon="-92.124489">
        <ele>10.3</ele>
      </trkpt>
      <trkpt lat="30.348986" lon="-92.124519">
        <ele>12.0</ele>
      </trkpt>
      <trkpt lat="30.349293" lon="-92.124535">
        <ele>12.6</ele>
      </trkpt>
      <trkpt lat="30.34964" lon="-92.124512">
        <ele>12.7</ele>
      </trkpt>
      <trkpt lat="30.349749" lon="-92.124458">
        <ele>12.7</ele>
      </trkpt>
      <trkpt lat="30.349792" lon="-92.124405">
        <ele>13.0</ele>
      </trkpt>
      <trkpt lat="30.349834" lon="-92.124268">
        <ele>13.0</ele>
      </trkpt>
      <trkpt lat="30.349798" lon="-92.123116">
        <ele>13.3</ele>
      </trkpt>
      <trkpt lat="30.349813" lon="-92.122536">
        <ele>13.3</ele>
      </trkpt>
      <trkpt lat="30.349867" lon="-92.122414">
        <ele>13.3</ele>
      </trkpt>
      <trkpt lat="30.349913" lon="-92.122368">
        <ele>13.2</ele>
      </trkpt>
      <trkpt lat="30.350027" lon="-92.122314">
        <ele>13.2</ele>
      </trkpt>
      <trkpt lat="30.351635" lon="-92.122314">
        <ele>11.1</ele>
      </trkpt>
      <trkpt lat="30.352097" lon="-92.12233">
        <ele>11.1</ele>
      </trkpt>
      <trkpt lat="30.353603" lon="-92.122322">
        <ele>12.0</ele>
      </trkpt>
      <trkpt lat="30.356808" lon="-92.122353">
        <ele>12.6</ele>
      </trkpt>
      <trkpt lat="30.356983" lon="-92.122307">
        <ele>12.7</ele>
      </trkpt>
      <trkpt lat="30.357063" lon="-92.122208">
        <ele>12.7</ele>
      </trkpt>
      <trkpt lat="30.357086" lon="-92.122147">
        <ele>13.0</ele>
      </trkpt>
      <trkpt lat="30.357098" lon="-92.122009">
        <ele>13.2</ele>
      </trkpt>
      <trkpt lat="30.357069" lon="-92.120506">
        <ele>14.0</ele>
      </trkpt>
      <trkpt lat="30.357067" lon="-92.117287">
        <ele>13.2</ele>
      </trkpt>
      <trkpt lat="30.357052" lon="-92.115974">
        <ele>13.0</ele>
      </trkpt>
      <trkpt lat="30.357052" lon="-92.108635">
        <ele>11.0</ele>
      </trkpt>
      <trkpt lat="30.357056" lon="-92.107933">
        <ele>10.8</ele>
      </trkpt>
      <trkpt lat="30.357086" lon="-92.107887">
        <ele>10.6</ele>
      </trkpt>
      <trkpt lat="30.357138" lon="-92.107857">
        <ele>10.6</ele>
      </trkpt>
      <trkpt lat="30.357178" lon="-92.107841">
        <ele>10.6</ele>
      </trkpt>
      <trkpt lat="30.357374" lon="-92.107826">
        <ele>11.0</ele>
      </trkpt>
      <trkpt lat="30.358185" lon="-92.10778">
        <ele>12.0</ele>
      </trkpt>
      <trkpt lat="30.360615" lon="-92.107765">
        <ele>14.2</ele>
      </trkpt>
      <trkpt lat="30.361353" lon="-92.107788">
        <ele>14.6</ele>
      </trkpt>
      <trkpt lat="30.363194" lon="-92.107803">
        <ele>14.2</ele>
      </trkpt>
      <trkpt lat="30.368126" lon="-92.107803">
        <ele>13.3</ele>
      </trkpt>
      <trkpt lat="30.370985" lon="-92.107819">
        <ele>12.7</ele>
      </trkpt>
      <trkpt lat="30.373474" lon="-92.107857">
        <ele>12.6</ele>
      </trkpt>
      <trkpt lat="30.37425" lon="-92.107849">
        <ele>12.7</ele>
      </trkpt>
      <trkpt lat="30.374718" lon="-92.107864">
        <ele>12.7</ele>
      </trkpt>
      <trkpt lat="30.37582" lon="-92.107864">
        <ele>12.0</ele>
      </trkpt>
      <trkpt lat="30.376135" lon="-92.107841">
        <ele>11.6</ele>
      </trkpt>
      <trkpt lat="30.376446" lon="-92.107773">
        <ele>11.3</ele>
      </trkpt>
      <trkpt lat="30.37681" lon="-92.107613">
        <ele>11.3</ele>
      </trkpt>
      <trkpt lat="30.377323" lon="-92.107254">
        <ele>11.8</ele>
      </trkpt>
      <trkpt lat="30.377382" lon="-92.107224">
        <ele>11.8</ele>
      </trkpt>
      <trkpt lat="30.377441" lon="-92.107224">
        <ele>11.8</ele>
      </trkpt>
      <trkpt lat="30.377497" lon="-92.107239">
        <ele>11.8</ele>
      </trkpt>
      <trkpt lat="30.377586" lon="-92.107338">
        <ele>12.0</ele>
      </trkpt>
      <trkpt lat="30.377951" lon="-92.10788">
        <ele>11.8</ele>
      </trkpt>
      <trkpt lat="30.378447" lon="-92.108894">
        <ele>12.3</ele>
      </trkpt>
      <trkpt lat="30.378614" lon="-92.109306">
        <ele>12.3</ele>
      </trkpt>
      <trkpt lat="30.378696" lon="-92.109367">
        <ele>12.2</ele>
      </trkpt>
      <trkpt lat="30.378748" lon="-92.109367">
        <ele>12.2</ele>
      </trkpt>
      <trkpt lat="30.378853" lon="-92.109329">
        <ele>11.8</ele>
      </trkpt>
      <trkpt lat="30.379541" lon="-92.108963">
        <ele>10.6</ele>
      </trkpt>
      <trkpt lat="30.380095" lon="-92.108704">
        <ele>10.1</ele>
      </trkpt>
      <trkpt lat="30.380585" lon="-92.108452">
        <ele>10.6</ele>
      </trkpt>
      <trkpt lat="30.38113" lon="-92.108208">
        <ele>10.8</ele>
      </trkpt>
      <trkpt lat="30.381226" lon="-92.108147">
        <ele>10.8</ele>
      </trkpt>
      <trkpt lat="30.382847" lon="-92.107353">
        <ele>11.1</ele>
      </trkpt>
      <trkpt lat="30.383404" lon="-92.107063">
        <ele>11.6</ele>
      </trkpt>
      <trkpt lat="30.384384" lon="-92.106598">
        <ele>12.3</ele>
      </trkpt>
      <trkpt lat="30.384916" lon="-92.106308">
        <ele>12.3</ele>
      </trkpt>
      <trkpt lat="30.385654" lon="-92.105942">
        <ele>12.2</ele>
      </trkpt>
      <trkpt lat="30.386982" lon="-92.105316">
        <ele>12.2</ele>
      </trkpt>
      <trkpt lat="30.387428" lon="-92.105087">
        <ele>12.0</ele>
      </trkpt>
      <trkpt lat="30.387598" lon="-92.104973">
        <ele>12.2</ele>
      </trkpt>
      <trkpt lat="30.387648" lon="-92.104919">
        <ele>12.2</ele>
      </trkpt>
      <trkpt lat="30.387749" lon="-92.104721">
        <ele>12.6</ele>
      </trkpt>
      <trkpt lat="30.388369" lon="-92.102188">
        <ele>13.3</ele>
      </trkpt>
      <trkpt lat="30.388706" lon="-92.100891">
        <ele>14.0</ele>
      </trkpt>
      <trkpt lat="30.388973" lon="-92.099754">
        <ele>13.6</ele>
      </trkpt>
      <trkpt lat="30.389269" lon="-92.098763">
        <ele>13.6</ele>
      </trkpt>
      <trkpt lat="30.389328" lon="-92.098465">
        <ele>13.6</ele>
      </trkpt>
      <trkpt lat="30.389519" lon="-92.097748">
        <ele>13.2</ele>
      </trkpt>
      <trkpt lat="30.389547" lon="-92.097534">
        <ele>14.2</ele>
      </trkpt>
      <trkpt lat="30.389643" lon="-92.097107">
        <ele>14.3</ele>
      </trkpt>
      <trkpt lat="30.389677" lon="-92.096992">
        <ele>14.3</ele>
      </trkpt>
      <trkpt lat="30.389727" lon="-92.096901">
        <ele>14.2</ele>
      </trkpt>
      <trkpt lat="30.389799" lon="-92.096848">
        <ele>14.0</ele>
      </trkpt>
      <trkpt lat="30.389893" lon="-92.096825">
        <ele>13.6</ele>
      </trkpt>
      <trkpt lat="30.390053" lon="-92.096848">
        <ele>13.3</ele>
      </trkpt>
      <trkpt lat="30.391567" lon="-92.097443">
        <ele>10.6</ele>
      </trkpt>
      <trkpt lat="30.391983" lon="-92.097572">
        <ele>10.6</ele>
      </trkpt>
      <trkpt lat="30.392099" lon="-92.097588">
        <ele>10.6</ele>
      </trkpt>
      <trkpt lat="30.392294" lon="-92.097588">
        <ele>10.8</ele>
      </trkpt>
      <trkpt lat="30.392977" lon="-92.097549">
        <ele>11.3</ele>
      </trkpt>
      <trkpt lat="30.39349" lon="-92.097511">
        <ele>12.6</ele>
      </trkpt>
      <trkpt lat="30.393881" lon="-92.097458">
        <ele>13.7</ele>
      </trkpt>
      <trkpt lat="30.394318" lon="-92.097374">
        <ele>14.7</ele>
      </trkpt>
      <trkpt lat="30.394852" lon="-92.097305">
        <ele>15.6</ele>
      </trkpt>
      <trkpt lat="30.39555" lon="-92.097191">
        <ele>15.0</ele>
      </trkpt>
      <trkpt lat="30.395857" lon="-92.097122">
        <ele>14.2</ele>
      </trkpt>
      <trkpt lat="30.396107" lon="-92.097092">
        <ele>13.7</ele>
      </trkpt>
      <trkpt lat="30.396349" lon="-92.097038">
        <ele>13.3</ele>
      </trkpt>
      <trkpt lat="30.396702" lon="-92.097">
        <ele>13.0</ele>
      </trkpt>
      <trkpt lat="30.397387" lon="-92.096855">
        <ele>13.3</ele>
      </trkpt>
      <trkpt lat="30.397978" lon="-92.096642">
        <ele>13.2</ele>
      </trkpt>
      <trkpt lat="30.399139" lon="-92.0961">
        <ele>14.3</ele>
      </trkpt>
      <trkpt lat="30.400396" lon="-92.095482">
        <ele>13.7</ele>
      </trkpt>
      <trkpt lat="30.401358" lon="-92.095047">
        <ele>13.0</ele>
      </trkpt>
      <trkpt lat="30.401625" lon="-92.094902">
        <ele>13.3</ele>
      </trkpt>
      <trkpt lat="30.402002" lon="-92.094749">
        <ele>13.7</ele>
      </trkpt>
      <trkpt lat="30.403538" lon="-92.09407">
        <ele>16.0</ele>
      </trkpt>
      <trkpt lat="30.403885" lon="-92.093933">
        <ele>16.2</ele>
      </trkpt>
      <trkpt lat="30.404547" lon="-92.093758">
        <ele>15.7</ele>
      </trkpt>
      <trkpt lat="30.406609" lon="-92.0933">
        <ele>15.2</ele>
      </trkpt>
      <trkpt lat="30.406803" lon="-92.093277">
        <ele>15.2</ele>
      </trkpt>
      <trkpt lat="30.407066" lon="-92.0933">
        <ele>15.2</ele>
      </trkpt>
      <trkpt lat="30.407518" lon="-92.093422">
        <ele>15.2</ele>
      </trkpt>
      <trkpt lat="30.407801" lon="-92.09346">
        <ele>15.0</ele>
      </trkpt>
      <trkpt lat="30.408939" lon="-92.093513">
        <ele>14.6</ele>
      </trkpt>
      <trkpt lat="30.410072" lon="-92.093712">
        <ele>15.0</ele>
      </trkpt>
      <trkpt lat="30.41087" lon="-92.093872">
        <ele>14.3</ele>
      </trkpt>
      <trkpt lat="30.411129" lon="-92.093903">
        <ele>14.2</ele>
      </trkpt>
      <trkpt lat="30.411716" lon="-92.093956">
        <ele>13.3</ele>
      </trkpt>
      <trkpt lat="30.412329" lon="-92.093964">
        <ele>12.2</ele>
      </trkpt>
      <trkpt lat="30.412735" lon="-92.093925">
        <ele>12.3</ele>
      </trkpt>
      <trkpt lat="30.413061" lon="-92.093834">
        <ele>12.7</ele>
      </trkpt>
      <trkpt lat="30.413923" lon="-92.093483">
        <ele>14.2</ele>
      </trkpt>
      <trkpt lat="30.414713" lon="-92.093117">
        <ele>14.0</ele>
      </trkpt>
      <trkpt lat="30.414738" lon="-92.093079">
        <ele>14.0</ele>
      </trkpt>
      <trkpt lat="30.414743" lon="-92.093025">
        <ele>14.0</ele>
      </trkpt>
      <trkpt lat="30.414707" lon="-92.092918">
        <ele>14.2</ele>
      </trkpt>
      <trkpt lat="30.414305" lon="-92.092239">
        <ele>15.0</ele>
      </trkpt>
      <trkpt lat="30.413931" lon="-92.091637">
        <ele>15.2</ele>
      </trkpt>
      <trkpt lat="30.413595" lon="-92.091156">
        <ele>15.6</ele>
      </trkpt>
      <trkpt lat="30.413214" lon="-92.090546">
        <ele>14.3</ele>
      </trkpt>
      <trkpt lat="30.413025" lon="-92.090294">
        <ele>14.0</ele>
      </trkpt>
      <trkpt lat="30.412838" lon="-92.090149">
        <ele>13.7</ele>
      </trkpt>
      <trkpt lat="30.412653" lon="-92.090034">
        <ele>13.7</ele>
      </trkpt>
      <trkpt lat="30.411755" lon="-92.089531">
        <ele>13.0</ele>
      </trkpt>
      <trkpt lat="30.411383" lon="-92.089287">
        <ele>13.0</ele>
      </trkpt>
      <trkpt lat="30.411268" lon="-92.089203">
        <ele>13.2</ele>
      </trkpt>
      <trkpt lat="30.411098" lon="-92.089043">
        <ele>13.6</ele>
      </trkpt>
      <trkpt lat="30.411005" lon="-92.088921">
        <ele>13.7</ele>
      </trkpt>
      <trkpt lat="30.410913" lon="-92.088745">
        <ele>14.0</ele>
      </trkpt>
      <trkpt lat="30.410803" lon="-92.08844">
        <ele>14.2</ele>
      </trkpt>
      <trkpt lat="30.410627" lon="-92.087791">
        <ele>14.6</ele>
      </trkpt>
      <trkpt lat="30.410385" lon="-92.086662">
        <ele>15.2</ele>
      </trkpt>
      <trkpt lat="30.410248" lon="-92.085892">
        <ele>15.6</ele>
      </trkpt>
      <trkpt lat="30.410191" lon="-92.085648">
        <ele>15.7</ele>
      </trkpt>
      <trkpt lat="30.409782" lon="-92.08326">
        <ele>16.7</ele>
      </trkpt>
      <trkpt lat="30.40946" lon="-92.081627">
        <ele>16.7</ele>
      </trkpt>
      <trkpt lat="30.409355" lon="-92.080994">
        <ele>16.3</ele>
      </trkpt>
      <trkpt lat="30.408405" lon="-92.075912">
        <ele>15.3</ele>
      </trkpt>
      <trkpt lat="30.407917" lon="-92.073158">
        <ele>14.3</ele>
      </trkpt>
      <trkpt lat="30.407413" lon="-92.070511">
        <ele>14.6</ele>
      </trkpt>
      <trkpt lat="30.407322" lon="-92.069916">
        <ele>14.3</ele>
      </trkpt>
      <trkpt lat="30.406935" lon="-92.067787">
        <ele>14.0</ele>
      </trkpt>
      <trkpt lat="30.406841" lon="-92.067223">
        <ele>14.0</ele>
      </trkpt>
      <trkpt lat="30.406813" lon="-92.066956">
        <ele>14.0</ele>
      </trkpt>
      <trkpt lat="30.406839" lon="-92.066887">
        <ele>14.0</ele>
      </trkpt>
      <trkpt lat="30.40687" lon="-92.066879">
        <ele>14.0</ele>
      </trkpt>
      <trkpt lat="30.407259" lon="-92.067001">
        <ele>14.3</ele>
      </trkpt>
      <trkpt lat="30.40868" lon="-92.067352">
        <ele>13.7</ele>
      </trkpt>
      <trkpt lat="30.409374" lon="-92.067505">
        <ele>12.2</ele>
      </trkpt>
      <trkpt lat="30.410137" lon="-92.067719">
        <ele>12.6</ele>
      </trkpt>
      <trkpt lat="30.410313" lon="-92.067749">
        <ele>13.3</ele>
      </trkpt>
      <trkpt lat="30.41058" lon="-92.067825">
        <ele>13.6</ele>
      </trkpt>
      <trkpt lat="30.411507" lon="-92.068039">
        <ele>14.0</ele>
      </trkpt>
      <trkpt lat="30.412025" lon="-92.068184">
        <ele>12.6</ele>
      </trkpt>
      <trkpt lat="30.412231" lon="-92.068207">
        <ele>12.2</ele>
      </trkpt>
      <trkpt lat="30.412306" lon="-92.068153">
        <ele>12.2</ele>
      </trkpt>
      <trkpt lat="30.412319" lon="-92.0681">
        <ele>12.2</ele>
      </trkpt>
      <trkpt lat="30.411861" lon="-92.066185">
        <ele>13.3</ele>
      </trkpt>
      <trkpt lat="30.411833" lon="-92.066124">
        <ele>13.2</ele>
      </trkpt>
      <trkpt lat="30.411755" lon="-92.066093">
        <ele>13.3</ele>
      </trkpt>
      <trkpt lat="30.411783" lon="-92.06601">
        <ele>13.6</ele>
      </trkpt>
      <trkpt lat="30.411764" lon="-92.065765">
        <ele>13.3</ele>
      </trkpt>
      <trkpt lat="30.411446" lon="-92.064392">
        <ele>14.3</ele>
      </trkpt>
      <trkpt lat="30.411268" lon="-92.063759">
        <ele>14.0</ele>
      </trkpt>
      <trkpt lat="30.409519" lon="-92.058945">
        <ele>12.7</ele>
      </trkpt>
      <trkpt lat="30.408936" lon="-92.057243">
        <ele>13.3</ele>
      </trkpt>
      <trkpt lat="30.407257" lon="-92.052574">
        <ele>13.6</ele>
      </trkpt>
      <trkpt lat="30.407146" lon="-92.052208">
        <ele>13.6</ele>
      </trkpt>
      <trkpt lat="30.407143" lon="-92.052101">
        <ele>13.6</ele>
      </trkpt>
      <trkpt lat="30.407164" lon="-92.052048">
        <ele>13.3</ele>
      </trkpt>
      <trkpt lat="30.407246" lon="-92.051994">
        <ele>13.3</ele>
      </trkpt>
      <trkpt lat="30.407478" lon="-92.052002">
        <ele>12.7</ele>
      </trkpt>
      <trkpt lat="30.407778" lon="-92.051949">
        <ele>12.2</ele>
      </trkpt>
      <trkpt lat="30.407898" lon="-92.051926">
        <ele>11.8</ele>
      </trkpt>
      <trkpt lat="30.408052" lon="-92.051865">
        <ele>11.3</ele>
      </trkpt>
      <trkpt lat="30.408558" lon="-92.051758">
        <ele>11.0</ele>
      </trkpt>
      <trkpt lat="30.409479" lon="-92.051598">
        <ele>11.6</ele>
      </trkpt>
      <trkpt lat="30.410116" lon="-92.051468">
        <ele>11.8</ele>
      </trkpt>
      <trkpt lat="30.411219" lon="-92.051285">
        <ele>11.3</ele>
      </trkpt>
      <trkpt lat="30.413374" lon="-92.050865">
        <ele>12.0</ele>
      </trkpt>
      <trkpt lat="30.416574" lon="-92.050278">
        <ele>12.7</ele>
      </trkpt>
      <trkpt lat="30.417772" lon="-92.050034">
        <ele>13.2</ele>
      </trkpt>
      <trkpt lat="30.419214" lon="-92.049782">
        <ele>13.0</ele>
      </trkpt>
      <trkpt lat="30.419378" lon="-92.049728">
        <ele>12.7</ele>
      </trkpt>
      <trkpt lat="30.419447" lon="-92.049728">
        <ele>13.0</ele>
      </trkpt>
      <trkpt lat="30.419504" lon="-92.049706">
        <ele>13.0</ele>
      </trkpt>
      <trkpt lat="30.419779" lon="-92.04966">
        <ele>12.6</ele>
      </trkpt>
      <trkpt lat="30.42005" lon="-92.049583">
        <ele>12.3</ele>
      </trkpt>
      <trkpt lat="30.42009" lon="-92.049561">
        <ele>12.3</ele>
      </trkpt>
      <trkpt lat="30.420115" lon="-92.049515">
        <ele>12.2</ele>
      </trkpt>
      <trkpt lat="30.420118" lon="-92.049461">
        <ele>12.2</ele>
      </trkpt>
      <trkpt lat="30.420076" lon="-92.049362">
        <ele>12.2</ele>
      </trkpt>
      <trkpt lat="30.419733" lon="-92.048851">
        <ele>13.0</ele>
      </trkpt>
      <trkpt lat="30.419159" lon="-92.047905">
        <ele>13.7</ele>
      </trkpt>
      <trkpt lat="30.418594" lon="-92.04705">
        <ele>14.3</ele>
      </trkpt>
      <trkpt lat="30.418364" lon="-92.046631">
        <ele>14.3</ele>
      </trkpt>
      <trkpt lat="30.418238" lon="-92.046364">
        <ele>14.6</ele>
      </trkpt>
      <trkpt lat="30.418209" lon="-92.046265">
        <ele>14.6</ele>
      </trkpt>
      <trkpt lat="30.418247" lon="-92.046173">
        <ele>14.3</ele>
      </trkpt>
      <trkpt lat="30.418287" lon="-92.046143">
        <ele>14.3</ele>
      </trkpt>
      <trkpt lat="30.419464" lon="-92.045929">
        <ele>15.6</ele>
      </trkpt>
      <trkpt lat="30.420675" lon="-92.045738">
        <ele>15.6</ele>
      </trkpt>
      <trkpt lat="30.422073" lon="-92.045494">
        <ele>15.6</ele>
      </trkpt>
      <trkpt lat="30.423626" lon="-92.045319">
        <ele>14.3</ele>
      </trkpt>
      <trkpt lat="30.42454" lon="-92.045158">
        <ele>14.2</ele>
      </trkpt>
      <trkpt lat="30.424913" lon="-92.045074">
        <ele>14.2</ele>
      </trkpt>
      <trkpt lat="30.425236" lon="-92.045029">
        <ele>14.2</ele>
      </trkpt>
      <trkpt lat="30.426289" lon="-92.044838">
        <ele>14.3</ele>
      </trkpt>
      <trkpt lat="30.427263" lon="-92.044647">
        <ele>14.0</ele>
      </trkpt>
      <trkpt lat="30.428293" lon="-92.044487">
        <ele>13.0</ele>
      </trkpt>
      <trkpt lat="30.429476" lon="-92.044266">
        <ele>11.6</ele>
      </trkpt>
      <trkpt lat="30.43014" lon="-92.044182">
        <ele>10.8</ele>
      </trkpt>
      <trkpt lat="30.430307" lon="-92.044136">
        <ele>10.3</ele>
      </trkpt>
      <trkpt lat="30.430346" lon="-92.04409">
        <ele>10.3</ele>
      </trkpt>
      <trkpt lat="30.430365" lon="-92.044037">
        <ele>10.3</ele>
      </trkpt>
      <trkpt lat="30.430357" lon="-92.043922">
        <ele>10.3</ele>
      </trkpt>
      <trkpt lat="30.430206" lon="-92.043091">
        <ele>10.3</ele>
      </trkpt>
      <trkpt lat="30.429684" lon="-92.039719">
        <ele>9.6</ele>
      </trkpt>
      <trkpt lat="30.429495" lon="-92.038696">
        <ele>11.0</ele>
      </trkpt>
      <trkpt lat="30.429405" lon="-92.038094">
        <ele>12.2</ele>
      </trkpt>
      <trkpt lat="30.429403" lon="-92.03804">
        <ele>12.2</ele>
      </trkpt>
      <trkpt lat="30.429428" lon="-92.037994">
        <ele>12.2</ele>
      </trkpt>
      <trkpt lat="30.429472" lon="-92.037979">
        <ele>12.0</ele>
      </trkpt>
      <trkpt lat="30.429506" lon="-92.03801">
        <ele>11.8</ele>
      </trkpt>
      <trkpt lat="30.429504" lon="-92.038063">
        <ele>11.8</ele>
      </trkpt>
      <trkpt lat="30.429455" lon="-92.038177">
        <ele>11.6</ele>
      </trkpt>
      <trkpt lat="30.429468" lon="-92.038284">
        <ele>11.8</ele>
      </trkpt>
      <trkpt lat="30.429453" lon="-92.038406">
        <ele>12.3</ele>
      </trkpt>
      <trkpt lat="30.429506" lon="-92.038551">
        <ele>12.6</ele>
      </trkpt>
      <trkpt lat="30.429583" lon="-92.038971">
        <ele>12.7</ele>
      </trkpt>
      <trkpt lat="30.429771" lon="-92.040123">
        <ele>11.3</ele>
      </trkpt>
      <trkpt lat="30.429918" lon="-92.041237">
        <ele>10.8</ele>
      </trkpt>
      <trkpt lat="30.43026" lon="-92.043388">
        <ele>10.1</ele>
      </trkpt>
      <trkpt lat="30.430365" lon="-92.04393">
        <ele>10.1</ele>
      </trkpt>
      <trkpt lat="30.430355" lon="-92.044075">
        <ele>10.0</ele>
      </trkpt>
      <trkpt lat="30.430292" lon="-92.044151">
        <ele>9.6</ele>
      </trkpt>
      <trkpt lat="30.430208" lon="-92.044182">
        <ele>9.1</ele>
      </trkpt>
      <trkpt lat="30.429518" lon="-92.044289">
        <ele>9.1</ele>
      </trkpt>
      <trkpt lat="30.429173" lon="-92.044365">
        <ele>9.1</ele>
      </trkpt>
      <trkpt lat="30.427837" lon="-92.044609">
        <ele>10.8</ele>
      </trkpt>
      <trkpt lat="30.425751" lon="-92.04496">
        <ele>12.2</ele>
      </trkpt>
      <trkpt lat="30.424398" lon="-92.045235">
        <ele>12.6</ele>
      </trkpt>
      <trkpt lat="30.424206" lon="-92.04525">
        <ele>12.6</ele>
      </trkpt>
      <trkpt lat="30.423496" lon="-92.045387">
        <ele>12.7</ele>
      </trkpt>
      <trkpt lat="30.422308" lon="-92.045486">
        <ele>12.0</ele>
      </trkpt>
      <trkpt lat="30.421612" lon="-92.045593">
        <ele>13.0</ele>
      </trkpt>
      <trkpt lat="30.420916" lon="-92.045731">
        <ele>13.7</ele>
      </trkpt>
      <trkpt lat="30.42054" lon="-92.045784">
        <ele>13.7</ele>
      </trkpt>
      <trkpt lat="30.420305" lon="-92.045799">
        <ele>13.7</ele>
      </trkpt>
      <trkpt lat="30.420004" lon="-92.045876">
        <ele>14.3</ele>
      </trkpt>
      <trkpt lat="30.41955" lon="-92.045952">
        <ele>15.0</ele>
      </trkpt>
      <trkpt lat="30.419336" lon="-92.046005">
        <ele>15.3</ele>
      </trkpt>
      <trkpt lat="30.418982" lon="-92.046051">
        <ele>15.6</ele>
      </trkpt>
      <trkpt lat="30.418446" lon="-92.04615">
        <ele>15.3</ele>
      </trkpt>
      <trkpt lat="30.418203" lon="-92.046227">
        <ele>14.6</ele>
      </trkpt>
      <trkpt lat="30.418114" lon="-92.046188">
        <ele>14.6</ele>
      </trkpt>
      <trkpt lat="30.418055" lon="-92.046104">
        <ele>14.6</ele>
      </trkpt>
      <trkpt lat="30.417517" lon="-92.044861">
        <ele>15.2</ele>
      </trkpt>
      <trkpt lat="30.416723" lon="-92.043182">
        <ele>15.6</ele>
      </trkpt>
      <trkpt lat="30.416382" lon="-92.042419">
        <ele>15.2</ele>
      </trkpt>
      <trkpt lat="30.416077" lon="-92.041794">
        <ele>14.6</ele>
      </trkpt>
      <trkpt lat="30.41519" lon="-92.040649">
        <ele>15.2</ele>
      </trkpt>
      <trkpt lat="30.414402" lon="-92.039696">
        <ele>15.0</ele>
      </trkpt>
      <trkpt lat="30.41382" lon="-92.03894">
        <ele>14.2</ele>
      </trkpt>
      <trkpt lat="30.413588" lon="-92.038612">
        <ele>13.6</ele>
      </trkpt>
      <trkpt lat="30.413519" lon="-92.038551">
        <ele>13.6</ele>
      </trkpt>
      <trkpt lat="30.413429" lon="-92.038528">
        <ele>13.6</ele>
      </trkpt>
      <trkpt lat="30.412832" lon="-92.038628">
        <ele>13.7</ele>
      </trkpt>
      <trkpt lat="30.411207" lon="-92.038933">
        <ele>13.3</ele>
      </trkpt>
      <trkpt lat="30.410601" lon="-92.039062">
        <ele>13.7</ele>
      </trkpt>
      <trkpt lat="30.410263" lon="-92.039116">
        <ele>14.0</ele>
      </trkpt>
      <trkpt lat="30.409973" lon="-92.039185">
        <ele>14.3</ele>
      </trkpt>
      <trkpt lat="30.409735" lon="-92.039215">
        <ele>14.2</ele>
      </trkpt>
      <trkpt lat="30.408541" lon="-92.039429">
        <ele>15.3</ele>
      </trkpt>
      <trkpt lat="30.407948" lon="-92.039551">
        <ele>15.6</ele>
      </trkpt>
      <trkpt lat="30.407179" lon="-92.039673">
        <ele>16.3</ele>
      </trkpt>
      <trkpt lat="30.407007" lon="-92.039719">
        <ele>16.3</ele>
      </trkpt>
      <trkpt lat="30.406754" lon="-92.039749">
        <ele>16.3</ele>
      </trkpt>
      <trkpt lat="30.406149" lon="-92.039879">
        <ele>16.6</ele>
      </trkpt>
      <trkpt lat="30.405588" lon="-92.039963">
        <ele>16.6</ele>
      </trkpt>
      <trkpt lat="30.405243" lon="-92.040039">
        <ele>16.3</ele>
      </trkpt>
      <trkpt lat="30.40313" lon="-92.040413">
        <ele>15.7</ele>
      </trkpt>
      <trkpt lat="30.40276" lon="-92.040436">
        <ele>15.6</ele>
      </trkpt>
      <trkpt lat="30.402515" lon="-92.040405">
        <ele>15.6</ele>
      </trkpt>
      <trkpt lat="30.402283" lon="-92.040329">
        <ele>15.7</ele>
      </trkpt>
      <trkpt lat="30.401913" lon="-92.040154">
        <ele>15.7</ele>
      </trkpt>
      <trkpt lat="30.401777" lon="-92.040146">
        <ele>15.6</ele>
      </trkpt>
      <trkpt lat="30.401745" lon="-92.040131">
        <ele>15.6</ele>
      </trkpt>
      <trkpt lat="30.401619" lon="-92.039963">
        <ele>15.6</ele>
      </trkpt>
      <trkpt lat="30.4014" lon="-92.039497">
        <ele>15.7</ele>
      </trkpt>
      <trkpt lat="30.401142" lon="-92.039017">
        <ele>15.6</ele>
      </trkpt>
      <trkpt lat="30.400215" lon="-92.037178">
        <ele>14.6</ele>
      </trkpt>
      <trkpt lat="30.398872" lon="-92.034576">
        <ele>14.0</ele>
      </trkpt>
      <trkpt lat="30.398684" lon="-92.034264">
        <ele>14.2</ele>
      </trkpt>
      <trkpt lat="30.398457" lon="-92.033997">
        <ele>14.2</ele>
      </trkpt>
      <trkpt lat="30.398254" lon="-92.033829">
        <ele>14.0</ele>
      </trkpt>
      <trkpt lat="30.398024" lon="-92.033699">
        <ele>14.0</ele>
      </trkpt>
      <trkpt lat="30.397718" lon="-92.033607">
        <ele>14.2</ele>
      </trkpt>
      <trkpt lat="30.397537" lon="-92.033585">
        <ele>14.2</ele>
      </trkpt>
      <trkpt lat="30.397356" lon="-92.033585">
        <ele>14.2</ele>
      </trkpt>
      <trkpt lat="30.397236" lon="-92.0336">
        <ele>14.2</ele>
      </trkpt>
      <trkpt lat="30.396999" lon="-92.033661">
        <ele>14.0</ele>
      </trkpt>
      <trkpt lat="30.396521" lon="-92.033875">
        <ele>13.7</ele>
      </trkpt>
      <trkpt lat="30.395672" lon="-92.03421">
        <ele>13.6</ele>
      </trkpt>
      <trkpt lat="30.395617" lon="-92.03421">
        <ele>13.3</ele>
      </trkpt>
      <trkpt lat="30.395565" lon="-92.034187">
        <ele>13.3</ele>
      </trkpt>
      <trkpt lat="30.395525" lon="-92.034134">
        <ele>13.2</ele>
      </trkpt>
      <trkpt lat="30.39547" lon="-92.03389">
        <ele>12.7</ele>
      </trkpt>
      <trkpt lat="30.395388" lon="-92.033302">
        <ele>12.6</ele>
      </trkpt>
      <trkpt lat="30.39534" lon="-92.032677">
        <ele>12.7</ele>
      </trkpt>
      <trkpt lat="30.3953" lon="-92.030769">
        <ele>14.0</ele>
      </trkpt>
      <trkpt lat="30.39522" lon="-92.028214">
        <ele>14.3</ele>
      </trkpt>
      <trkpt lat="30.395203" lon="-92.027306">
        <ele>14.2</ele>
      </trkpt>
      <trkpt lat="30.395214" lon="-92.027061">
        <ele>14.3</ele>
      </trkpt>
      <trkpt lat="30.395172" lon="-92.026009">
        <ele>14.7</ele>
      </trkpt>
      <trkpt lat="30.395123" lon="-92.023834">
        <ele>14.0</ele>
      </trkpt>
      <trkpt lat="30.395113" lon="-92.023659">
        <ele>13.7</ele>
      </trkpt>
      <trkpt lat="30.395073" lon="-92.023575">
        <ele>13.7</ele>
      </trkpt>
      <trkpt lat="30.394987" lon="-92.02356">
        <ele>13.7</ele>
      </trkpt>
      <trkpt lat="30.394491" lon="-92.023651">
        <ele>13.7</ele>
      </trkpt>
      <trkpt lat="30.393545" lon="-92.023743">
        <ele>15.6</ele>
      </trkpt>
      <trkpt lat="30.39151" lon="-92.023979">
        <ele>16.2</ele>
      </trkpt>
      <trkpt lat="30.390953" lon="-92.024025">
        <ele>15.2</ele>
      </trkpt>
      <trkpt lat="30.38957" lon="-92.024178">
        <ele>15.0</ele>
      </trkpt>
      <trkpt lat="30.389393" lon="-92.024185">
        <ele>15.0</ele>
      </trkpt>
      <trkpt lat="30.389164" lon="-92.024223">
        <ele>15.0</ele>
      </trkpt>
      <trkpt lat="30.387556" lon="-92.024384">
        <ele>15.3</ele>
      </trkpt>
      <trkpt lat="30.386688" lon="-92.02449">
        <ele>14.7</ele>
      </trkpt>
      <trkpt lat="30.386574" lon="-92.024498">
        <ele>15.0</ele>
      </trkpt>
      <trkpt lat="30.386467" lon="-92.024483">
        <ele>15.0</ele>
      </trkpt>
      <trkpt lat="30.386381" lon="-92.024429">
        <ele>14.7</ele>
      </trkpt>
      <trkpt lat="30.386299" lon="-92.0243">
        <ele>15.0</ele>
      </trkpt>
      <trkpt lat="30.38596" lon="-92.023537">
        <ele>15.7</ele>
      </trkpt>
      <trkpt lat="30.385729" lon="-92.022919">
        <ele>15.7</ele>
      </trkpt>
      <trkpt lat="30.385603" lon="-92.022636">
        <ele>15.7</ele>
      </trkpt>
      <trkpt lat="30.385386" lon="-92.021873">
        <ele>15.6</ele>
      </trkpt>
      <trkpt lat="30.385057" lon="-92.020889">
        <ele>14.7</ele>
      </trkpt>
      <trkpt lat="30.384705" lon="-92.019745">
        <ele>15.7</ele>
      </trkpt>
      <trkpt lat="30.384388" lon="-92.018784">
        <ele>15.0</ele>
      </trkpt>
      <trkpt lat="30.38434" lon="-92.018661">
        <ele>14.3</ele>
      </trkpt>
      <trkpt lat="30.384274" lon="-92.018585">
        <ele>13.7</ele>
      </trkpt>
      <trkpt lat="30.384144" lon="-92.018524">
        <ele>13.0</ele>
      </trkpt>
      <trkpt lat="30.384052" lon="-92.018532">
        <ele>12.7</ele>
      </trkpt>
      <trkpt lat="30.383617" lon="-92.018654">
        <ele>12.7</ele>
      </trkpt>
      <trkpt lat="30.383226" lon="-92.018738">
        <ele>12.7</ele>
      </trkpt>
      <trkpt lat="30.382734" lon="-92.018883">
        <ele>13.2</ele>
      </trkpt>
      <trkpt lat="30.382072" lon="-92.019035">
        <ele>14.0</ele>
      </trkpt>
      <trkpt lat="30.381399" lon="-92.019234">
        <ele>12.7</ele>
      </trkpt>
      <trkpt lat="30.380987" lon="-92.019318">
        <ele>11.0</ele>
      </trkpt>
      <trkpt lat="30.380278" lon="-92.019508">
        <ele>10.8</ele>
      </trkpt>
      <trkpt lat="30.380171" lon="-92.019508">
        <ele>11.0</ele>
      </trkpt>
      <trkpt lat="30.380089" lon="-92.019447">
        <ele>11.1</ele>
      </trkpt>
      <trkpt lat="30.380035" lon="-92.019325">
        <ele>11.1</ele>
      </trkpt>
      <trkpt lat="30.379868" lon="-92.018745">
        <ele>10.1</ele>
      </trkpt>
      <trkpt lat="30.379747" lon="-92.018394">
        <ele>9.3</ele>
      </trkpt>
      <trkpt lat="30.37945" lon="-92.017601">
        <ele>8.0</ele>
      </trkpt>
      <trkpt lat="30.379433" lon="-92.017517">
        <ele>7.8</ele>
      </trkpt>
      <trkpt lat="30.379433" lon="-92.017334">
        <ele>7.6</ele>
      </trkpt>
      <trkpt lat="30.379498" lon="-92.01683">
        <ele>7.1</ele>
      </trkpt>
      <trkpt lat="30.379534" lon="-92.016151">
        <ele>6.8</ele>
      </trkpt>
      <trkpt lat="30.379526" lon="-92.015831">
        <ele>6.6</ele>
      </trkpt>
      <trkpt lat="30.379551" lon="-92.015198">
        <ele>6.6</ele>
      </trkpt>
      <trkpt lat="30.379616" lon="-92.01445">
        <ele>6.6</ele>
      </trkpt>
      <trkpt lat="30.379662" lon="-92.014328">
        <ele>6.6</ele>
      </trkpt>
      <trkpt lat="30.379799" lon="-92.014183">
        <ele>6.8</ele>
      </trkpt>
      <trkpt lat="30.380308" lon="-92.013954">
        <ele>6.6</ele>
      </trkpt>
      <trkpt lat="30.380497" lon="-92.013824">
        <ele>6.6</ele>
      </trkpt>
      <trkpt lat="30.380514" lon="-92.013763">
        <ele>6.6</ele>
      </trkpt>
      <trkpt lat="30.380508" lon="-92.013626">
        <ele>6.8</ele>
      </trkpt>
      <trkpt lat="30.380375" lon="-92.012993">
        <ele>6.8</ele>
      </trkpt>
      <trkpt lat="30.380278" lon="-92.012627">
        <ele>6.8</ele>
      </trkpt>
      <trkpt lat="30.380117" lon="-92.012245">
        <ele>6.1</ele>
      </trkpt>
      <trkpt lat="30.378984" lon="-92.010315">
        <ele>6.1</ele>
      </trkpt>
      <trkpt lat="30.378641" lon="-92.009575">
        <ele>6.0</ele>
      </trkpt>
      <trkpt lat="30.378347" lon="-92.008873">
        <ele>5.3</ele>
      </trkpt>
      <trkpt lat="30.377817" lon="-92.007515">
        <ele>4.8</ele>
      </trkpt>
      <trkpt lat="30.37738" lon="-92.006218">
        <ele>4.6</ele>
      </trkpt>
      <trkpt lat="30.377026" lon="-92.005081">
        <ele>5.1</ele>
      </trkpt>
      <trkpt lat="30.376965" lon="-92.004997">
        <ele>4.8</ele>
      </trkpt>
      <trkpt lat="30.376932" lon="-92.004997">
        <ele>4.8</ele>
      </trkpt>
      <trkpt lat="30.37648" lon="-92.005219">
        <ele>4.8</ele>
      </trkpt>
      <trkpt lat="30.375759" lon="-92.005531">
        <ele>5.0</ele>
      </trkpt>
      <trkpt lat="30.375101" lon="-92.005844">
        <ele>4.0</ele>
      </trkpt>
      <trkpt lat="30.372284" lon="-92.007088">
        <ele>5.1</ele>
      </trkpt>
      <trkpt lat="30.370977" lon="-92.007607">
        <ele>5.1</ele>
      </trkpt>
      <trkpt lat="30.369785" lon="-92.008141">
        <ele>4.3</ele>
      </trkpt>
      <trkpt lat="30.368025" lon="-92.008835">
        <ele>4.8</ele>
      </trkpt>
      <trkpt lat="30.367754" lon="-92.008896">
        <ele>4.8</ele>
      </trkpt>
      <trkpt lat="30.36742" lon="-92.008911">
        <ele>4.8</ele>
      </trkpt>
      <trkpt lat="30.367292" lon="-92.008865">
        <ele>4.8</ele>
      </trkpt>
      <trkpt lat="30.367035" lon="-92.008652">
        <ele>5.3</ele>
      </trkpt>
      <trkpt lat="30.366978" lon="-92.008621">
        <ele>5.6</ele>
      </trkpt>
      <trkpt lat="30.366795" lon="-92.008583">
        <ele>5.8</ele>
      </trkpt>
      <trkpt lat="30.366669" lon="-92.008614">
        <ele>5.8</ele>
      </trkpt>
      <trkpt lat="30.366228" lon="-92.008781">
        <ele>5.3</ele>
      </trkpt>
      <trkpt lat="30.365623" lon="-92.009056">
        <ele>5.0</ele>
      </trkpt>
      <trkpt lat="30.365377" lon="-92.009186">
        <ele>5.0</ele>
      </trkpt>
      <trkpt lat="30.363958" lon="-92.009804">
        <ele>4.3</ele>
      </trkpt>
      <trkpt lat="30.362041" lon="-92.010597">
        <ele>4.3</ele>
      </trkpt>
      <trkpt lat="30.361563" lon="-92.010818">
        <ele>5.1</ele>
      </trkpt>
      <trkpt lat="30.360706" lon="-92.011169">
        <ele>6.0</ele>
      </trkpt>
      <trkpt lat="30.358671" lon="-92.01207">
        <ele>12.0</ele>
      </trkpt>
      <trkpt lat="30.357424" lon="-92.012558">
        <ele>12.6</ele>
      </trkpt>
      <trkpt lat="30.356941" lon="-92.012779">
        <ele>12.7</ele>
      </trkpt>
      <trkpt lat="30.356543" lon="-92.012932">
        <ele>13.3</ele>
      </trkpt>
      <trkpt lat="30.356321" lon="-92.013054">
        <ele>13.6</ele>
      </trkpt>
      <trkpt lat="30.35549" lon="-92.013412">
        <ele>14.7</ele>
      </trkpt>
      <trkpt lat="30.354397" lon="-92.013916">
        <ele>14.7</ele>
      </trkpt>
      <trkpt lat="30.354338" lon="-92.013931">
        <ele>14.6</ele>
      </trkpt>
      <trkpt lat="30.354252" lon="-92.013863">
        <ele>14.3</ele>
      </trkpt>
      <trkpt lat="30.354189" lon="-92.01371">
        <ele>14.3</ele>
      </trkpt>
      <trkpt lat="30.354076" lon="-92.01358">
        <ele>14.7</ele>
      </trkpt>
      <trkpt lat="30.353853" lon="-92.013199">
        <ele>15.3</ele>
      </trkpt>
      <trkpt lat="30.353586" lon="-92.012833">
        <ele>15.7</ele>
      </trkpt>
      <trkpt lat="30.353374" lon="-92.012405">
        <ele>15.6</ele>
      </trkpt>
      <trkpt lat="30.353188" lon="-92.012169">
        <ele>15.3</ele>
      </trkpt>
      <trkpt lat="30.353144" lon="-92.012085">
        <ele>15.2</ele>
      </trkpt>
      <trkpt lat="30.353041" lon="-92.012001">
        <ele>15.0</ele>
      </trkpt>
      <trkpt lat="30.353012" lon="-92.011986">
        <ele>15.0</ele>
      </trkpt>
      <trkpt lat="30.352993" lon="-92.011993">
        <ele>14.2</ele>
      </trkpt>
      <trkpt lat="30.35285" lon="-92.011871">
        <ele>13.2</ele>
      </trkpt>
      <trkpt lat="30.3528" lon="-92.011848">
        <ele>12.7</ele>
      </trkpt>
      <trkpt lat="30.352785" lon="-92.011871">
        <ele>12.6</ele>
      </trkpt>
      <trkpt lat="30.352776" lon="-92.011856">
        <ele>12.3</ele>
      </trkpt>
      <trkpt lat="30.352833" lon="-92.011871">
        <ele>18.2</ele>
      </trkpt>
      <trkpt lat="30.352873" lon="-92.01194">
        <ele>18.2</ele>
      </trkpt>
      <trkpt lat="30.352886" lon="-92.012009">
        <ele>18.6</ele>
      </trkpt>
      <trkpt lat="30.352793" lon="-92.01226">
        <ele>19.0</ele>
      </trkpt>
      <trkpt lat="30.352728" lon="-92.012352">
        <ele>19.0</ele>
      </trkpt>
      <trkpt lat="30.352577" lon="-92.012505">
        <ele>19.6</ele>
      </trkpt>
      <trkpt lat="30.352457" lon="-92.012604">
        <ele>20.0</ele>
      </trkpt>
      <trkpt lat="30.352259" lon="-92.012726">
        <ele>20.3</ele>
      </trkpt>
      <trkpt lat="30.350164" lon="-92.013618">
        <ele>19.6</ele>
      </trkpt>
      <trkpt lat="30.349882" lon="-92.013756">
        <ele>19.6</ele>
      </trkpt>
      <trkpt lat="30.349072" lon="-92.014099">
        <ele>20.0</ele>
      </trkpt>
      <trkpt lat="30.348555" lon="-92.014336">
        <ele>20.0</ele>
      </trkpt>
      <trkpt lat="30.347687" lon="-92.014687">
        <ele>20.2</ele>
      </trkpt>
      <trkpt lat="30.346708" lon="-92.015129">
        <ele>19.7</ele>
      </trkpt>
      <trkpt lat="30.346069" lon="-92.015396">
        <ele>19.7</ele>
      </trkpt>
      <trkpt lat="30.34569" lon="-92.015572">
        <ele>19.6</ele>
      </trkpt>
      <trkpt lat="30.345371" lon="-92.01577">
        <ele>19.2</ele>
      </trkpt>
      <trkpt lat="30.345224" lon="-92.015892">
        <ele>19.2</ele>
      </trkpt>
      <trkpt lat="30.344963" lon="-92.016197">
        <ele>19.0</ele>
      </trkpt>
      <trkpt lat="30.344854" lon="-92.016365">
        <ele>18.7</ele>
      </trkpt>
      <trkpt lat="30.344713" lon="-92.016678">
        <ele>18.7</ele>
      </trkpt>
      <trkpt lat="30.344637" lon="-92.016953">
        <ele>18.7</ele>
      </trkpt>
      <trkpt lat="30.344597" lon="-92.017235">
        <ele>18.6</ele>
      </trkpt>
      <trkpt lat="30.344597" lon="-92.017647">
        <ele>18.3</ele>
      </trkpt>
      <trkpt lat="30.34462" lon="-92.017967">
        <ele>18.0</ele>
      </trkpt>
      <trkpt lat="30.344606" lon="-92.017998">
        <ele>17.7</ele>
      </trkpt>
      <trkpt lat="30.344542" lon="-92.018036">
        <ele>17.7</ele>
      </trkpt>
      <trkpt lat="30.344275" lon="-92.018089">
        <ele>17.7</ele>
      </trkpt>
      <trkpt lat="30.343468" lon="-92.018188">
        <ele>17.2</ele>
      </trkpt>
      <trkpt lat="30.342815" lon="-92.018311">
        <ele>17.2</ele>
      </trkpt>
      <trkpt lat="30.342106" lon="-92.018394">
        <ele>17.2</ele>
      </trkpt>
      <trkpt lat="30.341791" lon="-92.018463">
        <ele>17.0</ele>
      </trkpt>
      <trkpt lat="30.341478" lon="-92.018501">
        <ele>16.7</ele>
      </trkpt>
      <trkpt lat="30.341415" lon="-92.018463">
        <ele>16.6</ele>
      </trkpt>
      <trkpt lat="30.341379" lon="-92.018379">
        <ele>16.3</ele>
      </trkpt>
      <trkpt lat="30.341311" lon="-92.017723">
        <ele>16.0</ele>
      </trkpt>
      <trkpt lat="30.341276" lon="-92.017563">
        <ele>16.0</ele>
      </trkpt>
      <trkpt lat="30.341223" lon="-92.017479">
        <ele>16.2</ele>
      </trkpt>
      <trkpt lat="30.341141" lon="-92.017441">
        <ele>16.0</ele>
      </trkpt>
      <trkpt lat="30.341093" lon="-92.017441">
        <ele>16.0</ele>
      </trkpt>
      <trkpt lat="30.340939" lon="-92.017479">
        <ele>15.7</ele>
      </trkpt>
      <trkpt lat="30.33843" lon="-92.017899">
        <ele>16.7</ele>
      </trkpt>
      <trkpt lat="30.336992" lon="-92.018112">
        <ele>17.6</ele>
      </trkpt>
      <trkpt lat="30.336319" lon="-92.018227">
        <ele>17.6</ele>
      </trkpt>
      <trkpt lat="30.336161" lon="-92.018242">
        <ele>17.6</ele>
      </trkpt>
      <trkpt lat="30.336065" lon="-92.018219">
        <ele>17.6</ele>
      </trkpt>
      <trkpt lat="30.33601" lon="-92.018135">
        <ele>17.6</ele>
      </trkpt>
      <trkpt lat="30.33596" lon="-92.017807">
        <ele>17.6</ele>
      </trkpt>
      <trkpt lat="30.335709" lon="-92.015549">
        <ele>17.0</ele>
      </trkpt>
      <trkpt lat="30.335455" lon="-92.013496">
        <ele>16.6</ele>
      </trkpt>
      <trkpt lat="30.33539" lon="-92.012787">
        <ele>15.6</ele>
      </trkpt>
      <trkpt lat="30.335209" lon="-92.01136">
        <ele>17.2</ele>
      </trkpt>
      <trkpt lat="30.334703" lon="-92.006828">
        <ele>11.6</ele>
      </trkpt>
      <trkpt lat="30.334475" lon="-92.005066">
        <ele>13.3</ele>
      </trkpt>
      <trkpt lat="30.333857" lon="-92.000626">
        <ele>15.6</ele>
      </trkpt>
      <trkpt lat="30.333736" lon="-91.999588">
        <ele>15.2</ele>
      </trkpt>
      <trkpt lat="30.333666" lon="-91.999191">
        <ele>15.6</ele>
      </trkpt>
      <trkpt lat="30.333527" lon="-91.998062">
        <ele>15.7</ele>
      </trkpt>
      <trkpt lat="30.333508" lon="-91.998024">
        <ele>15.7</ele>
      </trkpt>
      <trkpt lat="30.333435" lon="-91.997971">
        <ele>15.7</ele>
      </trkpt>
      <trkpt lat="30.333391" lon="-91.997971">
        <ele>15.7</ele>
      </trkpt>
      <trkpt lat="30.333054" lon="-91.998047">
        <ele>16.0</ele>
      </trkpt>
      <trkpt lat="30.332628" lon="-91.998032">
        <ele>15.3</ele>
      </trkpt>
      <trkpt lat="30.33189" lon="-91.9981">
        <ele>14.2</ele>
      </trkpt>
      <trkpt lat="30.331327" lon="-91.998238">
        <ele>14.7</ele>
      </trkpt>
      <trkpt lat="30.330639" lon="-91.99836">
        <ele>15.0</ele>
      </trkpt>
      <trkpt lat="30.330248" lon="-91.998459">
        <ele>15.0</ele>
      </trkpt>
      <trkpt lat="30.329317" lon="-91.998627">
        <ele>14.2</ele>
      </trkpt>
      <trkpt lat="30.328669" lon="-91.998718">
        <ele>13.3</ele>
      </trkpt>
      <trkpt lat="30.32836" lon="-91.998779">
        <ele>12.7</ele>
      </trkpt>
      <trkpt lat="30.327562" lon="-91.999008">
        <ele>10.3</ele>
      </trkpt>
      <trkpt lat="30.326935" lon="-91.999214">
        <ele>7.1</ele>
      </trkpt>
      <trkpt lat="30.326571" lon="-91.999367">
        <ele>6.1</ele>
      </trkpt>
      <trkpt lat="30.32559" lon="-91.999718">
        <ele>5.3</ele>
      </trkpt>
      <trkpt lat="30.32518" lon="-91.999809">
        <ele>5.0</ele>
      </trkpt>
      <trkpt lat="30.32482" lon="-91.999855">
        <ele>4.1</ele>
      </trkpt>
      <trkpt lat="30.32448" lon="-91.999847">
        <ele>3.8</ele>
      </trkpt>
      <trkpt lat="30.324213" lon="-91.999817">
        <ele>4.1</ele>
      </trkpt>
      <trkpt lat="30.3239" lon="-91.999825">
        <ele>4.6</ele>
      </trkpt>
      <trkpt lat="30.323732" lon="-91.999809">
        <ele>4.8</ele>
      </trkpt>
      <trkpt lat="30.323147" lon="-91.999817">
        <ele>4.8</ele>
      </trkpt>
      <trkpt lat="30.322765" lon="-91.999802">
        <ele>4.1</ele>
      </trkpt>
      <trkpt lat="30.322252" lon="-91.999748">
        <ele>4.3</ele>
      </trkpt>
      <trkpt lat="30.321737" lon="-91.999649">
        <ele>5.0</ele>
      </trkpt>
      <trkpt lat="30.32086" lon="-91.999336">
        <ele>4.0</ele>
      </trkpt>
      <trkpt lat="30.320482" lon="-91.999229">
        <ele>3.6</ele>
      </trkpt>
      <trkpt lat="30.319851" lon="-91.999107">
        <ele>4.6</ele>
      </trkpt>
      <trkpt lat="30.319502" lon="-91.998993">
        <ele>5.1</ele>
      </trkpt>
      <trkpt lat="30.318684" lon="-91.998535">
        <ele>6.0</ele>
      </trkpt>
      <trkpt lat="30.318588" lon="-91.998497">
        <ele>6.0</ele>
      </trkpt>
      <trkpt lat="30.318539" lon="-91.998497">
        <ele>3.8</ele>
      </trkpt>
      <trkpt lat="30.318474" lon="-91.998459">
        <ele>3.8</ele>
      </trkpt>
      <trkpt lat="30.317741" lon="-91.997948">
        <ele>4.1</ele>
      </trkpt>
      <trkpt lat="30.317358" lon="-91.997643">
        <ele>5.0</ele>
      </trkpt>
      <trkpt lat="30.317019" lon="-91.99733">
        <ele>6.0</ele>
      </trkpt>
      <trkpt lat="30.316713" lon="-91.997002">
        <ele>6.3</ele>
      </trkpt>
      <trkpt lat="30.315954" lon="-91.996063">
        <ele>6.6</ele>
      </trkpt>
      <trkpt lat="30.315552" lon="-91.995537">
        <ele>6.0</ele>
      </trkpt>
      <trkpt lat="30.315247" lon="-91.995201">
        <ele>6.0</ele>
      </trkpt>
      <trkpt lat="30.315136" lon="-91.99511">
        <ele>6.3</ele>
      </trkpt>
      <trkpt lat="30.314957" lon="-91.995018">
        <ele>6.6</ele>
      </trkpt>
      <trkpt lat="30.314449" lon="-91.994843">
        <ele>6.6</ele>
      </trkpt>
      <trkpt lat="30.314203" lon="-91.994667">
        <ele>6.6</ele>
      </trkpt>
      <trkpt lat="30.314114" lon="-91.994576">
        <ele>6.6</ele>
      </trkpt>
      <trkpt lat="30.313831" lon="-91.994232">
        <ele>6.3</ele>
      </trkpt>
      <trkpt lat="30.313522" lon="-91.993805">
        <ele>6.3</ele>
      </trkpt>
      <trkpt lat="30.313303" lon="-91.993462">
        <ele>6.1</ele>
      </trkpt>
      <trkpt lat="30.312948" lon="-91.992867">
        <ele>6.0</ele>
      </trkpt>
      <trkpt lat="30.312447" lon="-91.991951">
        <ele>6.3</ele>
      </trkpt>
      <trkpt lat="30.312109" lon="-91.991425">
        <ele>6.6</ele>
      </trkpt>
      <trkpt lat="30.31171" lon="-91.990921">
        <ele>6.6</ele>
      </trkpt>
      <trkpt lat="30.311199" lon="-91.990318">
        <ele>6.3</ele>
      </trkpt>
      <trkpt lat="30.311043" lon="-91.990189">
        <ele>6.3</ele>
      </trkpt>
      <trkpt lat="30.310925" lon="-91.990135">
        <ele>6.3</ele>
      </trkpt>
      <trkpt lat="30.31086" lon="-91.990128">
        <ele>6.3</ele>
      </trkpt>
      <trkpt lat="30.31073" lon="-91.990135">
        <ele>6.3</ele>
      </trkpt>
      <trkpt lat="30.310602" lon="-91.990166">
        <ele>6.3</ele>
      </trkpt>
      <trkpt lat="30.310123" lon="-91.990326">
        <ele>6.8</ele>
      </trkpt>
      <trkpt lat="30.309792" lon="-91.99028">
        <ele>6.8</ele>
      </trkpt>
      <trkpt lat="30.309687" lon="-91.99025">
        <ele>6.8</ele>
      </trkpt>
      <trkpt lat="30.309645" lon="-91.990219">
        <ele>6.8</ele>
      </trkpt>
      <trkpt lat="30.30961" lon="-91.990173">
        <ele>6.8</ele>
      </trkpt>
      <trkpt lat="30.309578" lon="-91.990059">
        <ele>6.6</ele>
      </trkpt>
      <trkpt lat="30.309467" lon="-91.989334">
        <ele>5.4</ele>
      </trkpt>
      <trkpt lat="30.309435" lon="-91.989243">
        <ele>5.3</ele>
      </trkpt>
      <trkpt lat="30.309406" lon="-91.989212">
        <ele>5.2</ele>
      </trkpt>
      <trkpt lat="30.30937" lon="-91.989189">
        <ele>5.1</ele>
      </trkpt>
      <trkpt lat="30.309313" lon="-91.989182">
        <ele>5.1</ele>
      </trkpt>
      <trkpt lat="30.309" lon="-91.989258">
        <ele>5.1</ele>
      </trkpt>
      <trkpt lat="30.308683" lon="-91.989273">
        <ele>5.6</ele>
      </trkpt>
      <trkpt lat="30.308424" lon="-91.989204">
        <ele>5.8</ele>
      </trkpt>
      <trkpt lat="30.308262" lon="-91.989105">
        <ele>6.1</ele>
      </trkpt>
      <trkpt lat="30.308125" lon="-91.988945">
        <ele>6.3</ele>
      </trkpt>
      <trkpt lat="30.307652" lon="-91.988106">
        <ele>6.3</ele>
      </trkpt>
      <trkpt lat="30.307226" lon="-91.98745">
        <ele>6.0</ele>
      </trkpt>
      <trkpt lat="30.307001" lon="-91.987144">
        <ele>6.3</ele>
      </trkpt>
      <trkpt lat="30.306767" lon="-91.986938">
        <ele>6.3</ele>
      </trkpt>
      <trkpt lat="30.306536" lon="-91.986801">
        <ele>6.3</ele>
      </trkpt>
      <trkpt lat="30.305922" lon="-91.986603">
        <ele>6.0</ele>
      </trkpt>
      <trkpt lat="30.305693" lon="-91.986488">
        <ele>5.8</ele>
      </trkpt>
      <trkpt lat="30.305542" lon="-91.986374">
        <ele>5.8</ele>
      </trkpt>
      <trkpt lat="30.305426" lon="-91.986259">
        <ele>5.8</ele>
      </trkpt>
      <trkpt lat="30.305298" lon="-91.986084">
        <ele>5.6</ele>
      </trkpt>
      <trkpt lat="30.305178" lon="-91.98587">
        <ele>5.3</ele>
      </trkpt>
      <trkpt lat="30.304935" lon="-91.985336">
        <ele>5.3</ele>
      </trkpt>
      <trkpt lat="30.304743" lon="-91.984772">
        <ele>5.1</ele>
      </trkpt>
      <trkpt lat="30.304695" lon="-91.984573">
        <ele>5.0</ele>
      </trkpt>
      <trkpt lat="30.30468" lon="-91.98423">
        <ele>4.8</ele>
      </trkpt>
      <trkpt lat="30.304401" lon="-91.982201">
        <ele>3.8</ele>
      </trkpt>
      <trkpt lat="30.304251" lon="-91.980949">
        <ele>3.3</ele>
      </trkpt>
      <trkpt lat="30.304031" lon="-91.979507">
        <ele>4.6</ele>
      </trkpt>
      <trkpt lat="30.303944" lon="-91.978676">
        <ele>5.1</ele>
      </trkpt>
      <trkpt lat="30.303804" lon="-91.977684">
        <ele>5.1</ele>
      </trkpt>
      <trkpt lat="30.303808" lon="-91.97747">
        <ele>5.0</ele>
      </trkpt>
      <trkpt lat="30.303869" lon="-91.977203">
        <ele>4.8</ele>
      </trkpt>
      <trkpt lat="30.304192" lon="-91.976334">
        <ele>5.0</ele>
      </trkpt>
      <trkpt lat="30.304232" lon="-91.976105">
        <ele>4.3</ele>
      </trkpt>
      <trkpt lat="30.304218" lon="-91.975822">
        <ele>4.1</ele>
      </trkpt>
      <trkpt lat="30.303469" lon="-91.97084">
        <ele>3.8</ele>
      </trkpt>
      <trkpt lat="30.303146" lon="-91.968796">
        <ele>4.6</ele>
      </trkpt>
      <trkpt lat="30.303017" lon="-91.968071">
        <ele>5.0</ele>
      </trkpt>
      <trkpt lat="30.302895" lon="-91.967224">
        <ele>4.6</ele>
      </trkpt>
      <trkpt lat="30.302347" lon="-91.963783">
        <ele>5.6</ele>
      </trkpt>
      <trkpt lat="30.302113" lon="-91.962265">
        <ele>5.1</ele>
      </trkpt>
      <trkpt lat="30.302086" lon="-91.961983">
        <ele>5.6</ele>
      </trkpt>
      <trkpt lat="30.302141" lon="-91.961693">
        <ele>6.0</ele>
      </trkpt>
      <trkpt lat="30.30275" lon="-91.959503">
        <ele>4.8</ele>
      </trkpt>
      <trkpt lat="30.303038" lon="-91.958397">
        <ele>4.6</ele>
      </trkpt>
      <trkpt lat="30.30352" lon="-91.956345">
        <ele>4.3</ele>
      </trkpt>
      <trkpt lat="30.303799" lon="-91.955254">
        <ele>5.8</ele>
      </trkpt>
      <trkpt lat="30.303902" lon="-91.954803">
        <ele>6.0</ele>
      </trkpt>
      <trkpt lat="30.303888" lon="-91.954735">
        <ele>6.0</ele>
      </trkpt>
      <trkpt lat="30.30385" lon="-91.954674">
        <ele>6.0</ele>
      </trkpt>
      <trkpt lat="30.303764" lon="-91.954636">
        <ele>6.1</ele>
      </trkpt>
      <trkpt lat="30.303665" lon="-91.954628">
        <ele>6.3</ele>
      </trkpt>
      <trkpt lat="30.303265" lon="-91.954544">
        <ele>6.6</ele>
      </trkpt>
      <trkpt lat="30.302921" lon="-91.954453">
        <ele>6.6</ele>
      </trkpt>
      <trkpt lat="30.300856" lon="-91.954041">
        <ele>8.6</ele>
      </trkpt>
      <trkpt lat="30.298634" lon="-91.95356">
        <ele>8.8</ele>
      </trkpt>
      <trkpt lat="30.2981" lon="-91.953461">
        <ele>9.0</ele>
      </trkpt>
      <trkpt lat="30.297495" lon="-91.953377">
        <ele>8.8</ele>
      </trkpt>
      <trkpt lat="30.297066" lon="-91.953293">
        <ele>8.6</ele>
      </trkpt>
      <trkpt lat="30.295525" lon="-91.95295">
        <ele>7.6</ele>
      </trkpt>
      <trkpt lat="30.293148" lon="-91.952461">
        <ele>7.0</ele>
      </trkpt>
      <trkpt lat="30.292713" lon="-91.952354">
        <ele>7.3</ele>
      </trkpt>
      <trkpt lat="30.29077" lon="-91.951965">
        <ele>7.3</ele>
      </trkpt>
      <trkpt lat="30.289478" lon="-91.951683">
        <ele>6.3</ele>
      </trkpt>
      <trkpt lat="30.288229" lon="-91.951439">
        <ele>6.1</ele>
      </trkpt>
      <trkpt lat="30.286991" lon="-91.951172">
        <ele>6.1</ele>
      </trkpt>
      <trkpt lat="30.284206" lon="-91.950638">
        <ele>6.3</ele>
      </trkpt>
      <trkpt lat="30.281567" lon="-91.950096">
        <ele>10.8</ele>
      </trkpt>
      <trkpt lat="30.280457" lon="-91.949883">
        <ele>12.0</ele>
      </trkpt>
      <trkpt lat="30.279968" lon="-91.949776">
        <ele>11.1</ele>
      </trkpt>
      <trkpt lat="30.279755" lon="-91.949707">
        <ele>10.6</ele>
      </trkpt>
      <trkpt lat="30.27953" lon="-91.949615">
        <ele>10.1</ele>
      </trkpt>
      <trkpt lat="30.279306" lon="-91.949478">
        <ele>9.3</ele>
      </trkpt>
      <trkpt lat="30.279167" lon="-91.949371">
        <ele>8.6</ele>
      </trkpt>
      <trkpt lat="30.278969" lon="-91.949181">
        <ele>7.8</ele>
      </trkpt>
      <trkpt lat="30.278742" lon="-91.948883">
        <ele>7.0</ele>
      </trkpt>
      <trkpt lat="30.277672" lon="-91.947334">
        <ele>4.6</ele>
      </trkpt>
      <trkpt lat="30.276709" lon="-91.945992">
        <ele>4.6</ele>
      </trkpt>
      <trkpt lat="30.276445" lon="-91.945534">
        <ele>4.8</ele>
      </trkpt>
      <trkpt lat="30.276012" lon="-91.944565">
        <ele>4.3</ele>
      </trkpt>
      <trkpt lat="30.275316" lon="-91.94294">
        <ele>3.0</ele>
      </trkpt>
      <trkpt lat="30.274836" lon="-91.941742">
        <ele>2.0</ele>
      </trkpt>
      <trkpt lat="30.274214" lon="-91.940262">
        <ele>0.8</ele>
      </trkpt>
      <trkpt lat="30.273788" lon="-91.939476">
        <ele>0.1</ele>
      </trkpt>
      <trkpt lat="30.273197" lon="-91.938438">
        <ele>0.6</ele>
      </trkpt>
      <trkpt lat="30.273138" lon="-91.938309">
        <ele>0.8</ele>
      </trkpt>
      <trkpt lat="30.273098" lon="-91.938095">
        <ele>1.1</ele>
      </trkpt>
      <trkpt lat="30.273111" lon="-91.93795">
        <ele>1.3</ele>
      </trkpt>
      <trkpt lat="30.273165" lon="-91.937813">
        <ele>1.6</ele>
      </trkpt>
      <trkpt lat="30.273237" lon="-91.937691">
        <ele>1.8</ele>
      </trkpt>
      <trkpt lat="30.274193" lon="-91.93618">
        <ele>1.8</ele>
      </trkpt>
      <trkpt lat="30.276819" lon="-91.931808">
        <ele>2.1</ele>
      </trkpt>
      <trkpt lat="30.277979" lon="-91.929893">
        <ele>2.6</ele>
      </trkpt>
      <trkpt lat="30.278622" lon="-91.928879">
        <ele>4.6</ele>
      </trkpt>
      <trkpt lat="30.280363" lon="-91.925964">
        <ele>4.6</ele>
      </trkpt>
      <trkpt lat="30.283129" lon="-91.921387">
        <ele>6.0</ele>
      </trkpt>
      <trkpt lat="30.283783" lon="-91.920334">
        <ele>7.6</ele>
      </trkpt>
      <trkpt lat="30.283804" lon="-91.920219">
        <ele>7.3</ele>
      </trkpt>
      <trkpt lat="30.283728" lon="-91.920052">
        <ele>7.1</ele>
      </trkpt>
      <trkpt lat="30.283251" lon="-91.919312">
        <ele>7.6</ele>
      </trkpt>
      <trkpt lat="30.282892" lon="-91.918625">
        <ele>8.1</ele>
      </trkpt>
      <trkpt lat="30.281088" lon="-91.91478">
        <ele>7.8</ele>
      </trkpt>
      <trkpt lat="30.280624" lon="-91.913727">
        <ele>7.6</ele>
      </trkpt>
      <trkpt lat="30.280346" lon="-91.912949">
        <ele>6.1</ele>
      </trkpt>
      <trkpt lat="30.28013" lon="-91.912415">
        <ele>4.8</ele>
      </trkpt>
      <trkpt lat="30.279755" lon="-91.911659">
        <ele>5.1</ele>
      </trkpt>
      <trkpt lat="30.279116" lon="-91.910439">
        <ele>5.6</ele>
      </trkpt>
      <trkpt lat="30.278673" lon="-91.90966">
        <ele>6.3</ele>
      </trkpt>
      <trkpt lat="30.277887" lon="-91.908348">
        <ele>7.0</ele>
      </trkpt>
      <trkpt lat="30.277527" lon="-91.907661">
        <ele>7.3</ele>
      </trkpt>
      <trkpt lat="30.277332" lon="-91.907372">
        <ele>7.3</ele>
      </trkpt>
      <trkpt lat="30.276812" lon="-91.906494">
        <ele>7.0</ele>
      </trkpt>
      <trkpt lat="30.275269" lon="-91.904106">
        <ele>6.0</ele>
      </trkpt>
      <trkpt lat="30.273354" lon="-91.901245">
        <ele>4.0</ele>
      </trkpt>
      <trkpt lat="30.272751" lon="-91.900276">
        <ele>4.1</ele>
      </trkpt>
      <trkpt lat="30.272743" lon="-91.900146">
        <ele>4.1</ele>
      </trkpt>
      <trkpt lat="30.272766" lon="-91.900085">
        <ele>4.0</ele>
      </trkpt>
      <trkpt lat="30.27284" lon="-91.899979">
        <ele>3.8</ele>
      </trkpt>
      <trkpt lat="30.272991" lon="-91.899849">
        <ele>3.3</ele>
      </trkpt>
      <trkpt lat="30.273275" lon="-91.899651">
        <ele>3.3</ele>
      </trkpt>
      <trkpt lat="30.273573" lon="-91.899399">
        <ele>3.8</ele>
      </trkpt>
      <trkpt lat="30.275108" lon="-91.898056">
        <ele>3.1</ele>
      </trkpt>
      <trkpt lat="30.275135" lon="-91.898041">
        <ele>3.3</ele>
      </trkpt>
      <trkpt lat="30.275179" lon="-91.898071">
        <ele>3.3</ele>
      </trkpt>
      <trkpt lat="30.275229" lon="-91.898209">
        <ele>3.8</ele>
      </trkpt>
      <trkpt lat="30.27533" lon="-91.898338">
        <ele>4.3</ele>
      </trkpt>
      <trkpt lat="30.275339" lon="-91.898384">
        <ele>4.6</ele>
      </trkpt>
      <trkpt lat="30.27533" lon="-91.898392">
        <ele>4.6</ele>
      </trkpt>
      <trkpt lat="30.275309" lon="-91.898361">
        <ele>4.6</ele>
      </trkpt>
    </trkseg>
  </trk>
</gpx>
