<?xml version="1.0"?>
<gpx version="1.1" creator="General Systems Corporation www.generalsystems.com" xmlns:xsi="http://www.w3.org/2001/XMLSchema-instance" xmlns="http://www.topografix.com/GPX/1/1" xsi:schemaLocation="http://www.topografix.com/GPX/1/1 http://www.topografix.com/GPX/1/1/gpx.xsd">
<metadata>
<name>Prairie Spirit Trail State Park </name>
<desc>Track and waypoints for the Prairie Spirit Trail State Park .</desc>
<copyright author="Rails-to-Trails Conservancy">
<year>2026</year>
<license>http://www.traillink.com/gpxtermsuse.aspx</license>
</copyright>
<link href="http://www.traillink.com">
<text>TrailLink.com</text>
</link>
<time>2026-05-15T16:43:26</time>
<keywords>Prairie Spirit Trail State Park  gpx traillink trails</keywords>
<bounds maxlat="90.0" maxlon="179.9" minlat="-90.0" minlon="-180.0"/>
</metadata>
<wpt lat="38.564880505" lon="-95.271235926">
<name>Parking</name>
</wpt>
<wpt lat="38.397911815" lon="-95.255213052">
<name>Parking</name>
</wpt>
<wpt lat="38.169934242" lon="-95.294850512">
<name>Parking</name>
</wpt>
<wpt lat="37.994310249" lon="-95.387820558">
<name>Parking</name>
</wpt>
<wpt lat="38.620457555" lon="-95.270084309">
<name>Parking</name>
</wpt>
<wpt lat="38.617175176" lon="-95.269661059">
<name>Parking</name>
</wpt>
<wpt lat="38.597552536" lon="-95.270675952">
<name>Parking</name>
</wpt>
<wpt lat="38.276295185" lon="-95.240532968">
<name>Parking</name>
</wpt>
<wpt lat="38.489967046" lon="-95.27448284">
<name>Parking</name>
</wpt>
<wpt lat="37.932633565" lon="-95.409531894">
<name>Parking</name>
</wpt>
<wpt lat="38.074189837" lon="-95.367780095">
<name>Parking</name>
</wpt>
<wpt lat="37.918774902" lon="-95.410045964">
<name>Parking</name>
</wpt>
<wpt lat="38.588053177" lon="-95.270027086">
<name>Parking</name>
</wpt>
<wpt lat="38.620049973" lon="-95.269989391">
<name>Endpoint</name>
</wpt>
<wpt lat="37.918565533" lon="-95.410795242">
<name>Endpoint</name>
</wpt>
<wpt lat="37.994164897" lon="-95.387836482">
<name>Restroom</name>
</wpt>
<wpt lat="38.073873442" lon="-95.367786988">
<name>Restroom</name>
</wpt>
<wpt lat="38.489927524" lon="-95.274314609">
<name>Restroom</name>
</wpt>
<wpt lat="38.620498408" lon="-95.269706398">
<name>Restroom</name>
</wpt>
<wpt lat="38.617024753" lon="-95.26937822">
<name>Restroom</name>
</wpt>
<wpt lat="38.16958874" lon="-95.295247083">
<name>Restroom</name>
</wpt>
<wpt lat="38.27658027" lon="-95.240789451">
<name>Restroom</name>
</wpt>
<wpt lat="38.397984063" lon="-95.255139704">
<name>Restroom</name>
</wpt>
<wpt lat="38.026486286" lon="-95.380624731">
<name>Tunnel</name>
</wpt>
<wpt lat="38.620249572" lon="-95.270215033">
<name>Trailhead</name>
</wpt>
<wpt lat="38.275952841" lon="-95.240422377">
<name>Trailhead</name>
</wpt>
<wpt lat="38.489247531" lon="-95.274511918">
<name>Trailhead</name>
</wpt>
<wpt lat="38.397623546" lon="-95.25495657">
<name>Trailhead</name>
</wpt>
<wpt lat="38.074516333" lon="-95.367429518">
<name>Trailhead</name>
</wpt>
<wpt lat="38.169369953" lon="-95.295264536">
<name>Trailhead</name>
</wpt>
<wpt lat="38.588164646" lon="-95.270134042">
<name>Trailhead</name>
</wpt>
<wpt lat="37.994850913" lon="-95.387818656">
<name>Trailhead</name>
</wpt>
<wpt lat="38.617080465" lon="-95.269382974">
<name>Drinking Fountain</name>
</wpt>
<wpt lat="38.588139565" lon="-95.270273085">
<name>Drinking Fountain</name>
</wpt>
<wpt lat="38.073936309" lon="-95.367747058">
<name>Drinking Fountain</name>
</wpt>
<wpt lat="38.597371422" lon="-95.27245855">
<name>Drinking Fountain</name>
</wpt>
<wpt lat="37.933134098" lon="-95.409414243">
<name>Drinking Fountain</name>
</wpt>
<wpt lat="38.620297854" lon="-95.269929817">
<name>Drinking Fountain</name>
</wpt>
<wpt lat="38.398003622" lon="-95.255079096">
<name>Drinking Fountain</name>
</wpt>
<wpt lat="38.169518901" lon="-95.295308948">
<name>Drinking Fountain</name>
</wpt>
<wpt lat="38.489877294" lon="-95.274313183">
<name>Drinking Fountain</name>
</wpt>
<trk><trkseg><trkpt lat="38.620049973" lon="-95.269989391">
</trkpt>
<trkpt lat="38.619155258" lon="-95.270001746">
</trkpt>
<trkpt lat="38.618636139" lon="-95.269971529">
</trkpt>
<trkpt lat="38.617873903" lon="-95.269992239">
</trkpt>
<trkpt lat="38.617287536" lon="-95.26999105">
</trkpt>
<trkpt lat="38.611446483" lon="-95.270049967">
</trkpt>
<trkpt lat="38.611041572" lon="-95.270056056">
</trkpt>
<trkpt lat="38.609994087" lon="-95.270060809">
</trkpt>
<trkpt lat="38.609015306" lon="-95.270063186">
</trkpt>
<trkpt lat="38.608517552" lon="-95.270077447">
</trkpt>
<trkpt lat="38.60725458" lon="-95.270098838">
</trkpt>
<trkpt lat="38.605924721" lon="-95.27013449">
</trkpt>
<trkpt lat="38.604700709" lon="-95.270174896">
</trkpt>
<trkpt lat="38.603628985" lon="-95.270205794">
</trkpt>
<trkpt lat="38.602774566" lon="-95.270224808">
</trkpt>
<trkpt lat="38.602193183" lon="-95.270248576">
</trkpt>
<trkpt lat="38.601509635" lon="-95.270262837">
</trkpt>
<trkpt lat="38.600889235" lon="-95.270269968">
</trkpt>
<trkpt lat="38.599145028" lon="-95.270317504">
</trkpt>
<trkpt lat="38.597733286" lon="-95.270353156">
</trkpt>
<trkpt lat="38.597133287" lon="-95.27036504">
</trkpt>
<trkpt lat="38.595465152" lon="-95.270405445">
</trkpt>
<trkpt lat="38.594805689" lon="-95.270429213">
</trkpt>
<trkpt lat="38.593914004" lon="-95.270447651">
</trkpt>
<trkpt lat="38.593670656" lon="-95.270462488">
</trkpt>
<trkpt lat="38.593553622" lon="-95.270464865">
</trkpt>
<trkpt lat="38.593308407" lon="-95.270469619">
</trkpt>
<trkpt lat="38.592875564" lon="-95.270476749">
</trkpt>
<trkpt lat="38.591289071" lon="-95.270521908">
</trkpt>
<trkpt lat="38.590237582" lon="-95.270548053">
</trkpt>
<trkpt lat="38.58806396" lon="-95.270607473">
</trkpt>
<trkpt lat="38.586252558" lon="-95.270650255">
</trkpt>
<trkpt lat="38.584463406" lon="-95.270695414">
</trkpt>
<trkpt lat="38.582832135" lon="-95.27074295">
</trkpt>
<trkpt lat="38.581219408" lon="-95.270785733">
</trkpt>
<trkpt lat="38.57936324" lon="-95.270826138">
</trkpt>
<trkpt lat="38.577575774" lon="-95.270876051">
</trkpt>
<trkpt lat="38.576308542" lon="-95.270911703">
</trkpt>
<trkpt lat="38.576198912" lon="-95.27091408">
</trkpt>
<trkpt lat="38.576161749" lon="-95.270909326">
</trkpt>
<trkpt lat="38.576139452" lon="-95.270899819">
</trkpt>
<trkpt lat="38.576115296" lon="-95.270880805">
</trkpt>
<trkpt lat="38.576098573" lon="-95.270857037">
</trkpt>
<trkpt lat="38.576096952" lon="-95.270851854">
</trkpt>
<trkpt lat="38.576085566" lon="-95.270816631">
</trkpt>
<trkpt lat="38.576085566" lon="-95.270776225">
</trkpt>
<trkpt lat="38.576096715" lon="-95.270731066">
</trkpt>
<trkpt lat="38.576122728" lon="-95.270657386">
</trkpt>
<trkpt lat="38.576156175" lon="-95.270588458">
</trkpt>
<trkpt lat="38.576224926" lon="-95.270462488">
</trkpt>
<trkpt lat="38.576384017" lon="-95.270205078">
</trkpt>
<trkpt lat="38.57655753" lon="-95.269965738">
</trkpt>
<trkpt lat="38.576793512" lon="-95.269623479">
</trkpt>
<trkpt lat="38.577003478" lon="-95.269338263">
</trkpt>
<trkpt lat="38.577042499" lon="-95.26928122">
</trkpt>
<trkpt lat="38.577062938" lon="-95.269231307">
</trkpt>
<trkpt lat="38.577074086" lon="-95.269176641">
</trkpt>
<trkpt lat="38.577090809" lon="-95.269076815">
</trkpt>
<trkpt lat="38.577103816" lon="-95.268960352">
</trkpt>
<trkpt lat="38.577109391" lon="-95.268846266">
</trkpt>
<trkpt lat="38.577111249" lon="-95.268694151">
</trkpt>
<trkpt lat="38.577114965" lon="-95.268399428">
</trkpt>
<trkpt lat="38.577116823" lon="-95.26819027">
</trkpt>
<trkpt lat="38.577114965" lon="-95.268116589">
</trkpt>
<trkpt lat="38.577109391" lon="-95.268052416">
</trkpt>
<trkpt lat="38.577101458" lon="-95.268017916">
</trkpt>
<trkpt lat="38.577075945" lon="-95.267969228">
</trkpt>
<trkpt lat="38.577051789" lon="-95.26793833">
</trkpt>
<trkpt lat="38.577025776" lon="-95.267926446">
</trkpt>
<trkpt lat="38.576996046" lon="-95.267921692">
</trkpt>
<trkpt lat="38.575985212" lon="-95.267912223">
</trkpt>
<trkpt lat="38.573781748" lon="-95.267905138">
</trkpt>
<trkpt lat="38.573750178" lon="-95.267911917">
</trkpt>
<trkpt lat="38.573726021" lon="-95.267928555">
</trkpt>
<trkpt lat="38.573705581" lon="-95.267952323">
</trkpt>
<trkpt lat="38.573690716" lon="-95.267987975">
</trkpt>
<trkpt lat="38.573685742" lon="-95.268030757">
</trkpt>
<trkpt lat="38.573685742" lon="-95.268144843">
</trkpt>
<trkpt lat="38.573676017" lon="-95.269528384">
</trkpt>
<trkpt lat="38.573674467" lon="-95.269568692">
</trkpt>
<trkpt lat="38.573662843" lon="-95.270100948">
</trkpt>
<trkpt lat="38.573662843" lon="-95.270219788">
</trkpt>
<trkpt lat="38.57365541" lon="-95.270338627">
</trkpt>
<trkpt lat="38.573638686" lon="-95.270466974">
</trkpt>
<trkpt lat="38.573625679" lon="-95.270533525">
</trkpt>
<trkpt lat="38.573592231" lon="-95.270619089">
</trkpt>
<trkpt lat="38.573549493" lon="-95.270697524">
</trkpt>
<trkpt lat="38.573508612" lon="-95.27075932">
</trkpt>
<trkpt lat="38.573464015" lon="-95.27081874">
</trkpt>
<trkpt lat="38.573410127" lon="-95.270866276">
</trkpt>
<trkpt lat="38.57335624" lon="-95.270906682">
</trkpt>
<trkpt lat="38.573302352" lon="-95.27093758">
</trkpt>
<trkpt lat="38.573246605" lon="-95.270963725">
</trkpt>
<trkpt lat="38.573181568" lon="-95.270982739">
</trkpt>
<trkpt lat="38.573110956" lon="-95.270994623">
</trkpt>
<trkpt lat="38.573027336" lon="-95.271001754">
</trkpt>
<trkpt lat="38.572375101" lon="-95.271013638">
</trkpt>
<trkpt lat="38.571237855" lon="-95.27104929">
</trkpt>
<trkpt lat="38.570221379" lon="-95.271068304">
</trkpt>
<trkpt lat="38.569186306" lon="-95.271089695">
</trkpt>
<trkpt lat="38.568043435" lon="-95.27112297">
</trkpt>
<trkpt lat="38.56683736" lon="-95.271146738">
</trkpt>
<trkpt lat="38.56539339" lon="-95.271189521">
</trkpt>
<trkpt lat="38.564326654" lon="-95.271215666">
</trkpt>
<trkpt lat="38.562584718" lon="-95.271251555">
</trkpt>
<trkpt lat="38.560677889" lon="-95.271321671">
</trkpt>
<trkpt lat="38.558686908" lon="-95.271354352">
</trkpt>
<trkpt lat="38.556925877" lon="-95.27140783">
</trkpt>
<trkpt lat="38.555255414" lon="-95.271449424">
</trkpt>
<trkpt lat="38.551575147" lon="-95.271565292">
</trkpt>
<trkpt lat="38.549783737" lon="-95.271606886">
</trkpt>
<trkpt lat="38.547334707" lon="-95.271672248">
</trkpt>
<trkpt lat="38.545097048" lon="-95.271731668">
</trkpt>
<trkpt lat="38.543103311" lon="-95.271782175">
</trkpt>
<trkpt lat="38.540835311" lon="-95.271844566">
</trkpt>
<trkpt lat="38.538739206" lon="-95.271901015">
</trkpt>
<trkpt lat="38.536694167" lon="-95.271948551">
</trkpt>
<trkpt lat="38.534616534" lon="-95.272005">
</trkpt>
<trkpt lat="38.532325025" lon="-95.27206442">
</trkpt>
<trkpt lat="38.530509894" lon="-95.272117898">
</trkpt>
<trkpt lat="38.528446027" lon="-95.272171376">
</trkpt>
<trkpt lat="38.526740968" lon="-95.272205839">
</trkpt>
<trkpt lat="38.525125122" lon="-95.272248622">
</trkpt>
<trkpt lat="38.523377216" lon="-95.272298534">
</trkpt>
<trkpt lat="38.521149504" lon="-95.272353201">
</trkpt>
<trkpt lat="38.51854794" lon="-95.272414997">
</trkpt>
<trkpt lat="38.516969104" lon="-95.27245778">
</trkpt>
<trkpt lat="38.51422233" lon="-95.272519577">
</trkpt>
<trkpt lat="38.512648858" lon="-95.272546841">
</trkpt>
<trkpt lat="38.509729401" lon="-95.272627007">
</trkpt>
<trkpt lat="38.508572982" lon="-95.272691253">
</trkpt>
<trkpt lat="38.507759207" lon="-95.272776913">
</trkpt>
<trkpt lat="38.505928212" lon="-95.272916112">
</trkpt>
<trkpt lat="38.501837918" lon="-95.273280169">
</trkpt>
<trkpt lat="38.496452008" lon="-95.273740595">
</trkpt>
<trkpt lat="38.491826336" lon="-95.274136775">
</trkpt>
<trkpt lat="38.490937608" lon="-95.274233144">
</trkpt>
<trkpt lat="38.490552135" lon="-95.274243851">
</trkpt>
<trkpt lat="38.490155955" lon="-95.274201021">
</trkpt>
<trkpt lat="38.489856143" lon="-95.274201021">
</trkpt>
<trkpt lat="38.489758856" lon="-95.274210954">
</trkpt>
<trkpt lat="38.489660257" lon="-95.274227591">
</trkpt>
<trkpt lat="38.489552355" lon="-95.274260867">
</trkpt>
<trkpt lat="38.489399805" lon="-95.27431791">
</trkpt>
<trkpt lat="38.489342133" lon="-95.274334547">
</trkpt>
<trkpt lat="38.489269578" lon="-95.274348808">
</trkpt>
<trkpt lat="38.489195163" lon="-95.274355938">
</trkpt>
<trkpt lat="38.488864477" lon="-95.274392909">
</trkpt>
<trkpt lat="38.488474865" lon="-95.274415172">
</trkpt>
<trkpt lat="38.48777091" lon="-95.274476592">
</trkpt>
<trkpt lat="38.486855387" lon="-95.274563314">
</trkpt>
<trkpt lat="38.4856033" lon="-95.2746774">
</trkpt>
<trkpt lat="38.484284213" lon="-95.274798617">
</trkpt>
<trkpt lat="38.482983707" lon="-95.27491508">
</trkpt>
<trkpt lat="38.482888819" lon="-95.274929341">
</trkpt>
<trkpt lat="38.482749279" lon="-95.274945978">
</trkpt>
<trkpt lat="38.482286001" lon="-95.274991137">
</trkpt>
<trkpt lat="38.481688759" lon="-95.275029166">
</trkpt>
<trkpt lat="38.480992901" lon="-95.275090963">
</trkpt>
<trkpt lat="38.480726836" lon="-95.27510047">
</trkpt>
<trkpt lat="38.480471934" lon="-95.275107601">
</trkpt>
<trkpt lat="38.48018354" lon="-95.275095717">
</trkpt>
<trkpt lat="38.479796531" lon="-95.275086209">
</trkpt>
<trkpt lat="38.479500691" lon="-95.275079079">
</trkpt>
<trkpt lat="38.479212578" lon="-95.275054487">
</trkpt>
<trkpt lat="38.479154172" lon="-95.275046016">
</trkpt>
<trkpt lat="38.478817837" lon="-95.275012529">
</trkpt>
<trkpt lat="38.478108863" lon="-95.274894406">
</trkpt>
<trkpt lat="38.477831537" lon="-95.274854183">
</trkpt>
<trkpt lat="38.476752746" lon="-95.274637282">
</trkpt>
<trkpt lat="38.475456636" lon="-95.274380631">
</trkpt>
<trkpt lat="38.473509789" lon="-95.274011059">
</trkpt>
<trkpt lat="38.472456001" lon="-95.273826507">
</trkpt>
<trkpt lat="38.471799132" lon="-95.273688653">
</trkpt>
<trkpt lat="38.471581838" lon="-95.273640384">
</trkpt>
<trkpt lat="38.471401228" lon="-95.273594979">
</trkpt>
<trkpt lat="38.471266933" lon="-95.273557929">
</trkpt>
<trkpt lat="38.470989397" lon="-95.273483613">
</trkpt>
<trkpt lat="38.469436798" lon="-95.273001773">
</trkpt>
<trkpt lat="38.46840218" lon="-95.272666696">
</trkpt>
<trkpt lat="38.466726543" lon="-95.272137792">
</trkpt>
<trkpt lat="38.466099025" lon="-95.271948124">
</trkpt>
<trkpt lat="38.465697591" lon="-95.27180275">
</trkpt>
<trkpt lat="38.464414946" lon="-95.271395636">
</trkpt>
<trkpt lat="38.461320457" lon="-95.270421247">
</trkpt>
<trkpt lat="38.45702672" lon="-95.26903997">
</trkpt>
<trkpt lat="38.454478317" lon="-95.26824761">
</trkpt>
<trkpt lat="38.453658046" lon="-95.267987907">
</trkpt>
<trkpt lat="38.452574354" lon="-95.267623006">
</trkpt>
<trkpt lat="38.452321213" lon="-95.267545048">
</trkpt>
<trkpt lat="38.452051692" lon="-95.267463286">
</trkpt>
<trkpt lat="38.451892361" lon="-95.26741575">
</trkpt>
<trkpt lat="38.451705055" lon="-95.267369588">
</trkpt>
<trkpt lat="38.451543184" lon="-95.267340683">
</trkpt>
<trkpt lat="38.451444148" lon="-95.267314974">
</trkpt>
<trkpt lat="38.451409899" lon="-95.267303565">
</trkpt>
<trkpt lat="38.451383096" lon="-95.267286452">
</trkpt>
<trkpt lat="38.451240144" lon="-95.267170464">
</trkpt>
<trkpt lat="38.451216318" lon="-95.267157154">
</trkpt>
<trkpt lat="38.451191004" lon="-95.267147647">
</trkpt>
<trkpt lat="38.4511642" lon="-95.267141943">
</trkpt>
<trkpt lat="38.451128462" lon="-95.267140041">
</trkpt>
<trkpt lat="38.451087645" lon="-95.267138834">
</trkpt>
<trkpt lat="38.450968273" lon="-95.267114136">
</trkpt>
<trkpt lat="38.450747254" lon="-95.267050674">
</trkpt>
<trkpt lat="38.450529845" lon="-95.266989828">
</trkpt>
<trkpt lat="38.45013821" lon="-95.266858628">
</trkpt>
<trkpt lat="38.449524694" lon="-95.266664682">
</trkpt>
<trkpt lat="38.448772683" lon="-95.266427002">
</trkpt>
<trkpt lat="38.448558247" lon="-95.266354747">
</trkpt>
<trkpt lat="38.448415289" lon="-95.266311014">
</trkpt>
<trkpt lat="38.448071296" lon="-95.26619883">
</trkpt>
<trkpt lat="38.447542645" lon="-95.266029602">
</trkpt>
<trkpt lat="38.447181073" lon="-95.265923524">
</trkpt>
<trkpt lat="38.445419709" lon="-95.265356564">
</trkpt>
<trkpt lat="38.444199046" lon="-95.264981799">
</trkpt>
<trkpt lat="38.443288902" lon="-95.26475694">
</trkpt>
<trkpt lat="38.442389466" lon="-95.264574912">
</trkpt>
<trkpt lat="38.441233048" lon="-95.26436076">
</trkpt>
<trkpt lat="38.440504932" lon="-95.264264392">
</trkpt>
<trkpt lat="38.437581765" lon="-95.26405024">
</trkpt>
<trkpt lat="38.434797795" lon="-95.263846796">
</trkpt>
<trkpt lat="38.432988215" lon="-95.263729013">
</trkpt>
<trkpt lat="38.429058536" lon="-95.263461324">
</trkpt>
<trkpt lat="38.425878386" lon="-95.263236465">
</trkpt>
<trkpt lat="38.421616771" lon="-95.262925945">
</trkpt>
<trkpt lat="38.418854217" lon="-95.262743916">
</trkpt>
<trkpt lat="38.415909634" lon="-95.262529765">
</trkpt>
<trkpt lat="38.414763924" lon="-95.262444104">
</trkpt>
<trkpt lat="38.414132177" lon="-95.262347736">
</trkpt>
<trkpt lat="38.413575383" lon="-95.262262075">
</trkpt>
<trkpt lat="38.412847268" lon="-95.262090754">
</trkpt>
<trkpt lat="38.411979954" lon="-95.261823065">
</trkpt>
<trkpt lat="38.411134056" lon="-95.261501838">
</trkpt>
<trkpt lat="38.409442259" lon="-95.2607416">
</trkpt>
<trkpt lat="38.407589849" lon="-95.259799333">
</trkpt>
<trkpt lat="38.405673193" lon="-95.258814237">
</trkpt>
<trkpt lat="38.40458247" lon="-95.258257627">
</trkpt>
<trkpt lat="38.40337522" lon="-95.257662483">
</trkpt>
<trkpt lat="38.403156179" lon="-95.257559805">
</trkpt>
<trkpt lat="38.403090615" lon="-95.257533185">
</trkpt>
<trkpt lat="38.403015933" lon="-95.257512007">
</trkpt>
<trkpt lat="38.402963958" lon="-95.257500861">
</trkpt>
<trkpt lat="38.402920746" lon="-95.257495156">
</trkpt>
<trkpt lat="38.402785148" lon="-95.257481846">
</trkpt>
<trkpt lat="38.402701703" lon="-95.257470438">
</trkpt>
<trkpt lat="38.402634649" lon="-95.257459029">
</trkpt>
<trkpt lat="38.402557164" lon="-95.257440015">
</trkpt>
<trkpt lat="38.402493044" lon="-95.257422252">
</trkpt>
<trkpt lat="38.402440521" lon="-95.257401826">
</trkpt>
<trkpt lat="38.402372393" lon="-95.257369661">
</trkpt>
<trkpt lat="38.4023262" lon="-95.257337337">
</trkpt>
<trkpt lat="38.402257655" lon="-95.257270787">
</trkpt>
<trkpt lat="38.4021757" lon="-95.257187123">
</trkpt>
<trkpt lat="38.402110135" lon="-95.257111066">
</trkpt>
<trkpt lat="38.402072883" lon="-95.257073037">
</trkpt>
<trkpt lat="38.40203265" lon="-95.257038811">
</trkpt>
<trkpt lat="38.401947714" lon="-95.256991275">
</trkpt>
<trkpt lat="38.401666084" lon="-95.256844865">
</trkpt>
<trkpt lat="38.40161989" lon="-95.256822047">
</trkpt>
<trkpt lat="38.401506642" lon="-95.256780216">
</trkpt>
<trkpt lat="38.401439587" lon="-95.256753596">
</trkpt>
<trkpt lat="38.401245872" lon="-95.256664228">
</trkpt>
<trkpt lat="38.4009851" lon="-95.25654824">
</trkpt>
<trkpt lat="38.400751884" lon="-95.256436941">
</trkpt>
<trkpt lat="38.40038815" lon="-95.256276058">
</trkpt>
<trkpt lat="38.399962868" lon="-95.256069078">
</trkpt>
<trkpt lat="38.399599272" lon="-95.255896047">
</trkpt>
<trkpt lat="38.399366685" lon="-95.255793659">
</trkpt>
<trkpt lat="38.399254345" lon="-95.255735734">
</trkpt>
<trkpt lat="38.399162656" lon="-95.255677382">
</trkpt>
<trkpt lat="38.398995757" lon="-95.255574704">
</trkpt>
<trkpt lat="38.398761801" lon="-95.255418786">
</trkpt>
<trkpt lat="38.398568079" lon="-95.255281883">
</trkpt>
<trkpt lat="38.398468237" lon="-95.255209628">
</trkpt>
<trkpt lat="38.398395218" lon="-95.255158289">
</trkpt>
<trkpt lat="38.398299847" lon="-95.255103148">
</trkpt>
<trkpt lat="38.398198515" lon="-95.255044203">
</trkpt>
<trkpt lat="38.397887066" lon="-95.254876877">
</trkpt>
<trkpt lat="38.397599459" lon="-95.254728564">
</trkpt>
<trkpt lat="38.397510048" lon="-95.254688634">
</trkpt>
<trkpt lat="38.397445774" lon="-95.254635101">
</trkpt>
<trkpt lat="38.396807322" lon="-95.254306348">
</trkpt>
<trkpt lat="38.395950716" lon="-95.253781677">
</trkpt>
<trkpt lat="38.395254723" lon="-95.253310543">
</trkpt>
<trkpt lat="38.394505193" lon="-95.252732334">
</trkpt>
<trkpt lat="38.393853198" lon="-95.252179375">
</trkpt>
<trkpt lat="38.393474454" lon="-95.251823111">
</trkpt>
<trkpt lat="38.393091793" lon="-95.25142601">
</trkpt>
<trkpt lat="38.392063866" lon="-95.250398083">
</trkpt>
<trkpt lat="38.391442827" lon="-95.249766336">
</trkpt>
<trkpt lat="38.391250091" lon="-95.249552185">
</trkpt>
<trkpt lat="38.390832495" lon="-95.249348741">
</trkpt>
<trkpt lat="38.390596929" lon="-95.249188127">
</trkpt>
<trkpt lat="38.390040135" lon="-95.24851355">
</trkpt>
<trkpt lat="38.389269189" lon="-95.247528453">
</trkpt>
<trkpt lat="38.388765933" lon="-95.247025197">
</trkpt>
<trkpt lat="38.38798428" lon="-95.246232837">
</trkpt>
<trkpt lat="38.387288288" lon="-95.245515429">
</trkpt>
<trkpt lat="38.384343705" lon="-95.242570846">
</trkpt>
<trkpt lat="38.382245021" lon="-95.240429331">
</trkpt>
<trkpt lat="38.378176142" lon="-95.23632833">
</trkpt>
<trkpt lat="38.378099932" lon="-95.236249833">
</trkpt>
<trkpt lat="38.376580238" lon="-95.234719211">
</trkpt>
<trkpt lat="38.375697036" lon="-95.233820782">
</trkpt>
<trkpt lat="38.375261021" lon="-95.233385828">
</trkpt>
<trkpt lat="38.375065372" lon="-95.233204003">
</trkpt>
<trkpt lat="38.374679664" lon="-95.232886701">
</trkpt>
<trkpt lat="38.374344263" lon="-95.23261218">
</trkpt>
<trkpt lat="38.374151407" lon="-95.232473138">
</trkpt>
<trkpt lat="38.373922215" lon="-95.232326965">
</trkpt>
<trkpt lat="38.37362929" lon="-95.232146971">
</trkpt>
<trkpt lat="38.373454102" lon="-95.232056008">
</trkpt>
<trkpt lat="38.373092393" lon="-95.231875154">
</trkpt>
<trkpt lat="38.372756512" lon="-95.231730166">
</trkpt>
<trkpt lat="38.372504243" lon="-95.231635565">
</trkpt>
<trkpt lat="38.372158904" lon="-95.231536155">
</trkpt>
<trkpt lat="38.371880089" lon="-95.231477799">
</trkpt>
<trkpt lat="38.371815222" lon="-95.231466679">
</trkpt>
<trkpt lat="38.371515655" lon="-95.231428535">
</trkpt>
<trkpt lat="38.371322792" lon="-95.231407144">
</trkpt>
<trkpt lat="38.371068435" lon="-95.231378623">
</trkpt>
<trkpt lat="38.370858799" lon="-95.231350101">
</trkpt>
<trkpt lat="38.369396922" lon="-95.23133584">
</trkpt>
<trkpt lat="38.369201258" lon="-95.23133584">
</trkpt>
<trkpt lat="38.368924532" lon="-95.23132158">
</trkpt>
<trkpt lat="38.368480106" lon="-95.231315018">
</trkpt>
<trkpt lat="38.368340328" lon="-95.231314449">
</trkpt>
<trkpt lat="38.367728167" lon="-95.231310884">
</trkpt>
<trkpt lat="38.366766588" lon="-95.231318014">
</trkpt>
<trkpt lat="38.366492648" lon="-95.23132871">
</trkpt>
<trkpt lat="38.366243865" lon="-95.231342971">
</trkpt>
<trkpt lat="38.365983899" lon="-95.231367927">
</trkpt>
<trkpt lat="38.365765862" lon="-95.231414275">
</trkpt>
<trkpt lat="38.365497509" lon="-95.231464187">
</trkpt>
<trkpt lat="38.365145294" lon="-95.231531926">
</trkpt>
<trkpt lat="38.364935641" lon="-95.231581839">
</trkpt>
<trkpt lat="38.364533106" lon="-95.231695925">
</trkpt>
<trkpt lat="38.363409328" lon="-95.232015015">
</trkpt>
<trkpt lat="38.361054731" lon="-95.232687755">
</trkpt>
<trkpt lat="38.360198125" lon="-95.232998275">
</trkpt>
<trkpt lat="38.359673454" lon="-95.233255257">
</trkpt>
<trkpt lat="38.359245151" lon="-95.233512238">
</trkpt>
<trkpt lat="38.357499816" lon="-95.234818562">
</trkpt>
<trkpt lat="38.356396936" lon="-95.235643046">
</trkpt>
<trkpt lat="38.355797312" lon="-95.236007103">
</trkpt>
<trkpt lat="38.355443962" lon="-95.236135594">
</trkpt>
<trkpt lat="38.354962121" lon="-95.236296208">
</trkpt>
<trkpt lat="38.354587356" lon="-95.236435406">
</trkpt>
<trkpt lat="38.3540841" lon="-95.236467529">
</trkpt>
<trkpt lat="38.353591552" lon="-95.236478236">
</trkpt>
<trkpt lat="38.352745653" lon="-95.236339038">
</trkpt>
<trkpt lat="38.351268008" lon="-95.236017811">
</trkpt>
<trkpt lat="38.348741021" lon="-95.235461017">
</trkpt>
<trkpt lat="38.347852292" lon="-95.235300403">
</trkpt>
<trkpt lat="38.347488234" lon="-95.235236158">
</trkpt>
<trkpt lat="38.347124177" lon="-95.23522545">
</trkpt>
<trkpt lat="38.346717289" lon="-95.235236158">
</trkpt>
<trkpt lat="38.346214033" lon="-95.235321818">
</trkpt>
<trkpt lat="38.3457429" lon="-95.235439602">
</trkpt>
<trkpt lat="38.345143276" lon="-95.235685876">
</trkpt>
<trkpt lat="38.344854171" lon="-95.235803659">
</trkpt>
<trkpt lat="38.344243839" lon="-95.236167717">
</trkpt>
<trkpt lat="38.3436228" lon="-95.236531774">
</trkpt>
<trkpt lat="38.34295893" lon="-95.237024323">
</trkpt>
<trkpt lat="38.340474773" lon="-95.239133715">
</trkpt>
<trkpt lat="38.339468261" lon="-95.239990321">
</trkpt>
<trkpt lat="38.335881224" lon="-95.242977734">
</trkpt>
<trkpt lat="38.335701704" lon="-95.243127763">
</trkpt>
<trkpt lat="38.334707223" lon="-95.243992524">
</trkpt>
<trkpt lat="38.332943516" lon="-95.245418602">
</trkpt>
<trkpt lat="38.332619108" lon="-95.245675296">
</trkpt>
<trkpt lat="38.332275733" lon="-95.245928515">
</trkpt>
<trkpt lat="38.332011306" lon="-95.246107873">
</trkpt>
<trkpt lat="38.331772659" lon="-95.246255235">
</trkpt>
<trkpt lat="38.331530281" lon="-95.246393089">
</trkpt>
<trkpt lat="38.33126553" lon="-95.246530943">
</trkpt>
<trkpt lat="38.33095603" lon="-95.246668797">
</trkpt>
<trkpt lat="38.330721108" lon="-95.246768623">
</trkpt>
<trkpt lat="38.330480993" lon="-95.246853292">
</trkpt>
<trkpt lat="38.330244748" lon="-95.246914262">
</trkpt>
<trkpt lat="38.329904468" lon="-95.247001549">
</trkpt>
<trkpt lat="38.329658356" lon="-95.247058592">
</trkpt>
<trkpt lat="38.32931156" lon="-95.247106128">
</trkpt>
<trkpt lat="38.329050529" lon="-95.247144157">
</trkpt>
<trkpt lat="38.328804414" lon="-95.247163171">
</trkpt>
<trkpt lat="38.328595588" lon="-95.247167925">
</trkpt>
<trkpt lat="38.328241328" lon="-95.247177432">
</trkpt>
<trkpt lat="38.327607386" lon="-95.247158418">
</trkpt>
<trkpt lat="38.327223289" lon="-95.24713465">
</trkpt>
<trkpt lat="38.326455089" lon="-95.247125142">
</trkpt>
<trkpt lat="38.325985214" lon="-95.247115635">
</trkpt>
<trkpt lat="38.324963844" lon="-95.247051343">
</trkpt>
<trkpt lat="38.324821371" lon="-95.247046717">
</trkpt>
<trkpt lat="38.324500523" lon="-95.247059978">
</trkpt>
<trkpt lat="38.324330375" lon="-95.247071862">
</trkpt>
<trkpt lat="38.324164889" lon="-95.24709563">
</trkpt>
<trkpt lat="38.324001734" lon="-95.24712534">
</trkpt>
<trkpt lat="38.323833916" lon="-95.247169905">
</trkpt>
<trkpt lat="38.323649783" lon="-95.247232296">
</trkpt>
<trkpt lat="38.323474972" lon="-95.247309542">
</trkpt>
<trkpt lat="38.323293168" lon="-95.24739273">
</trkpt>
<trkpt lat="38.323132342" lon="-95.24748186">
</trkpt>
<trkpt lat="38.323006477" lon="-95.247556135">
</trkpt>
<trkpt lat="38.322852642" lon="-95.247663091">
</trkpt>
<trkpt lat="38.322649859" lon="-95.24780867">
</trkpt>
<trkpt lat="38.322454069" lon="-95.247978016">
</trkpt>
<trkpt lat="38.322043839" lon="-95.248370188">
</trkpt>
<trkpt lat="38.321573003" lon="-95.248842576">
</trkpt>
<trkpt lat="38.321274651" lon="-95.249133734">
</trkpt>
<trkpt lat="38.321134798" lon="-95.249243661">
</trkpt>
<trkpt lat="38.320992613" lon="-95.249341704">
</trkpt>
<trkpt lat="38.320871407" lon="-95.249421921">
</trkpt>
<trkpt lat="38.320731553" lon="-95.249493225">
</trkpt>
<trkpt lat="38.320591699" lon="-95.249564529">
</trkpt>
<trkpt lat="38.320428535" lon="-95.249635833">
</trkpt>
<trkpt lat="38.320284018" lon="-95.249686339">
</trkpt>
<trkpt lat="38.320153487" lon="-95.249724962">
</trkpt>
<trkpt lat="38.320011301" lon="-95.249757643">
</trkpt>
<trkpt lat="38.319855129" lon="-95.24977844">
</trkpt>
<trkpt lat="38.319663992" lon="-95.249796266">
</trkpt>
<trkpt lat="38.319512481" lon="-95.249799237">
</trkpt>
<trkpt lat="38.319332998" lon="-95.249796266">
</trkpt>
<trkpt lat="38.319137199" lon="-95.24977844">
</trkpt>
<trkpt lat="38.318864477" lon="-95.249745759">
</trkpt>
<trkpt lat="38.318134882" lon="-95.249662572">
</trkpt>
<trkpt lat="38.317722297" lon="-95.24962692">
</trkpt>
<trkpt lat="38.316997352" lon="-95.249534819">
</trkpt>
<trkpt lat="38.316594085" lon="-95.249490254">
</trkpt>
<trkpt lat="38.3147987" lon="-95.249287038">
</trkpt>
<trkpt lat="38.312700686" lon="-95.2490553">
</trkpt>
<trkpt lat="38.312370593" lon="-95.249023213">
</trkpt>
<trkpt lat="38.312188762" lon="-95.248994691">
</trkpt>
<trkpt lat="38.31198455" lon="-95.248955474">
</trkpt>
<trkpt lat="38.311763554" lon="-95.248901996">
</trkpt>
<trkpt lat="38.31151738" lon="-95.248837823">
</trkpt>
<trkpt lat="38.311282395" lon="-95.248770084">
</trkpt>
<trkpt lat="38.311064194" lon="-95.248695215">
</trkpt>
<trkpt lat="38.310890751" lon="-95.248627476">
</trkpt>
<trkpt lat="38.310692131" lon="-95.248538346">
</trkpt>
<trkpt lat="38.310448751" lon="-95.248420695">
</trkpt>
<trkpt lat="38.310233345" lon="-95.248306609">
</trkpt>
<trkpt lat="38.309987166" lon="-95.248160436">
</trkpt>
<trkpt lat="38.309114341" lon="-95.247622091">
</trkpt>
<trkpt lat="38.307715563" lon="-95.246737922">
</trkpt>
<trkpt lat="38.306314064" lon="-95.245862049">
</trkpt>
<trkpt lat="38.306139795" lon="-95.245765233">
</trkpt>
<trkpt lat="38.305934428" lon="-95.245664636">
</trkpt>
<trkpt lat="38.305835562" lon="-95.245622016">
</trkpt>
<trkpt lat="38.305606154" lon="-95.245522191">
</trkpt>
<trkpt lat="38.305340375" lon="-95.245415235">
</trkpt>
<trkpt lat="38.305094179" lon="-95.245315409">
</trkpt>
<trkpt lat="38.304892746" lon="-95.245251236">
</trkpt>
<trkpt lat="38.304699705" lon="-95.245190627">
</trkpt>
<trkpt lat="38.304509816" lon="-95.245144484">
</trkpt>
<trkpt lat="38.304268858" lon="-95.245083672">
</trkpt>
<trkpt lat="38.304047838" lon="-95.245040889">
</trkpt>
<trkpt lat="38.303838008" lon="-95.245001672">
</trkpt>
<trkpt lat="38.302816828" lon="-95.244862629">
</trkpt>
<trkpt lat="38.301538235" lon="-95.244702196">
</trkpt>
<trkpt lat="38.300029187" lon="-95.244507441">
</trkpt>
<trkpt lat="38.299882359" lon="-95.244487502">
</trkpt>
<trkpt lat="38.299057876" lon="-95.244369719">
</trkpt>
<trkpt lat="38.298608158" lon="-95.244305473">
</trkpt>
<trkpt lat="38.298278699" lon="-95.244242285">
</trkpt>
<trkpt lat="38.298035277" lon="-95.244192373">
</trkpt>
<trkpt lat="38.297749884" lon="-95.244121069">
</trkpt>
<trkpt lat="38.297444905" lon="-95.244035504">
</trkpt>
<trkpt lat="38.297014015" lon="-95.243910722">
</trkpt>
<trkpt lat="38.296608304" lon="-95.243800201">
</trkpt>
<trkpt lat="38.296174864" lon="-95.243652697">
</trkpt>
<trkpt lat="38.295194586" lon="-95.243350188">
</trkpt>
<trkpt lat="38.293473064" lon="-95.24283641">
</trkpt>
<trkpt lat="38.292538481" lon="-95.242544064">
</trkpt>
<trkpt lat="38.291307252" lon="-95.242134534">
</trkpt>
<trkpt lat="38.291230639" lon="-95.242110421">
</trkpt>
<trkpt lat="38.287889876" lon="-95.241082493">
</trkpt>
<trkpt lat="38.286476476" lon="-95.240622068">
</trkpt>
<trkpt lat="38.286048173" lon="-95.240504284">
</trkpt>
<trkpt lat="38.285630577" lon="-95.240407916">
</trkpt>
<trkpt lat="38.285063076" lon="-95.240290133">
</trkpt>
<trkpt lat="38.284656188" lon="-95.24021518">
</trkpt>
<trkpt lat="38.284195762" lon="-95.240150934">
</trkpt>
<trkpt lat="38.283157128" lon="-95.240108104">
</trkpt>
<trkpt lat="38.281219057" lon="-95.240108104">
</trkpt>
<trkpt lat="38.279366646" lon="-95.240118812">
</trkpt>
<trkpt lat="38.278670654" lon="-95.240161642">
</trkpt>
<trkpt lat="38.278456503" lon="-95.240193765">
</trkpt>
<trkpt lat="38.278444231" lon="-95.240194298">
</trkpt>
<trkpt lat="38.27831701" lon="-95.240181369">
</trkpt>
<trkpt lat="38.278219987" lon="-95.240177566">
</trkpt>
<trkpt lat="38.278154311" lon="-95.240177566">
</trkpt>
<trkpt lat="38.278076693" lon="-95.24018327">
</trkpt>
<trkpt lat="38.278011016" lon="-95.24019658">
</trkpt>
<trkpt lat="38.277908023" lon="-95.240230806">
</trkpt>
<trkpt lat="38.277796073" lon="-95.240278342">
</trkpt>
<trkpt lat="38.277663226" lon="-95.240310666">
</trkpt>
<trkpt lat="38.277341951" lon="-95.240413395">
</trkpt>
<trkpt lat="38.277141245" lon="-95.240470726">
</trkpt>
<trkpt lat="38.27665763" lon="-95.240600653">
</trkpt>
<trkpt lat="38.276445203" lon="-95.240673841">
</trkpt>
<trkpt lat="38.276233241" lon="-95.240770814">
</trkpt>
<trkpt lat="38.275934702" lon="-95.240900112">
</trkpt>
<trkpt lat="38.275477935" lon="-95.24109596">
</trkpt>
<trkpt lat="38.274597912" lon="-95.24150182">
</trkpt>
<trkpt lat="38.272567337" lon="-95.242410233">
</trkpt>
<trkpt lat="38.26937648" lon="-95.243866463">
</trkpt>
<trkpt lat="38.267834589" lon="-95.244562455">
</trkpt>
<trkpt lat="38.267697976" lon="-95.244621655">
</trkpt>
<trkpt lat="38.26667677" lon="-95.245097417">
</trkpt>
<trkpt lat="38.26637446" lon="-95.24524359">
</trkpt>
<trkpt lat="38.265951783" lon="-95.245461067">
</trkpt>
<trkpt lat="38.265563937" lon="-95.245660032">
</trkpt>
<trkpt lat="38.264761515" lon="-95.246136469">
</trkpt>
<trkpt lat="38.2633267" lon="-95.247142981">
</trkpt>
<trkpt lat="38.262908449" lon="-95.247434303">
</trkpt>
<trkpt lat="38.262116786" lon="-95.248017313">
</trkpt>
<trkpt lat="38.261106216" lon="-95.248751743">
</trkpt>
<trkpt lat="38.260473553" lon="-95.249186697">
</trkpt>
<trkpt lat="38.260213208" lon="-95.249368522">
</trkpt>
<trkpt lat="38.259980856" lon="-95.249525391">
</trkpt>
<trkpt lat="38.259686916" lon="-95.249707216">
</trkpt>
<trkpt lat="38.259479758" lon="-95.249828432">
</trkpt>
<trkpt lat="38.259073837" lon="-95.25006017">
</trkpt>
<trkpt lat="38.258698709" lon="-95.250249125">
</trkpt>
<trkpt lat="38.258345974" lon="-95.250427385">
</trkpt>
<trkpt lat="38.257919375" lon="-95.250612235">
</trkpt>
<trkpt lat="38.257309043" lon="-95.250858509">
</trkpt>
<trkpt lat="38.256377908" lon="-95.251197468">
</trkpt>
<trkpt lat="38.25500051" lon="-95.251685899">
</trkpt>
<trkpt lat="38.252911966" lon="-95.252423895">
</trkpt>
<trkpt lat="38.250130501" lon="-95.253400395">
</trkpt>
<trkpt lat="38.247586566" lon="-95.254306348">
</trkpt>
<trkpt lat="38.245969722" lon="-95.254841726">
</trkpt>
<trkpt lat="38.244973918" lon="-95.255248614">
</trkpt>
<trkpt lat="38.244406416" lon="-95.255473473">
</trkpt>
<trkpt lat="38.244154621" lon="-95.255581385">
</trkpt>
<trkpt lat="38.243952385" lon="-95.255682484">
</trkpt>
<trkpt lat="38.24364438" lon="-95.255871439">
</trkpt>
<trkpt lat="38.243344774" lon="-95.256049699">
</trkpt>
<trkpt lat="38.242938338" lon="-95.256311008">
</trkpt>
<trkpt lat="38.242896648" lon="-95.256340787">
</trkpt>
<trkpt lat="38.242535601" lon="-95.256597531">
</trkpt>
<trkpt lat="38.242316354" lon="-95.256771627">
</trkpt>
<trkpt lat="38.241900844" lon="-95.257143855">
</trkpt>
<trkpt lat="38.24141617" lon="-95.257612373">
</trkpt>
<trkpt lat="38.241139822" lon="-95.257902183">
</trkpt>
<trkpt lat="38.240851502" lon="-95.258236028">
</trkpt>
<trkpt lat="38.240476736" lon="-95.258728576">
</trkpt>
<trkpt lat="38.240202504" lon="-95.259083072">
</trkpt>
<trkpt lat="38.239695515" lon="-95.259824951">
</trkpt>
<trkpt lat="38.239095459" lon="-95.260752307">
</trkpt>
<trkpt lat="38.237232341" lon="-95.26361123">
</trkpt>
<trkpt lat="38.235187195" lon="-95.266737842">
</trkpt>
<trkpt lat="38.234116437" lon="-95.268365393">
</trkpt>
<trkpt lat="38.2326495" lon="-95.270592568">
</trkpt>
<trkpt lat="38.230946995" lon="-95.273173094">
</trkpt>
<trkpt lat="38.229137415" lon="-95.27592494">
</trkpt>
<trkpt lat="38.227745431" lon="-95.277766643">
</trkpt>
<trkpt lat="38.225871605" lon="-95.280143725">
</trkpt>
<trkpt lat="38.223772921" lon="-95.282777788">
</trkpt>
<trkpt lat="38.223173296" lon="-95.283548733">
</trkpt>
<trkpt lat="38.22258438" lon="-95.284159065">
</trkpt>
<trkpt lat="38.221931218" lon="-95.284715859">
</trkpt>
<trkpt lat="38.221417254" lon="-95.285026378">
</trkpt>
<trkpt lat="38.220731969" lon="-95.285401144">
</trkpt>
<trkpt lat="38.219939609" lon="-95.285722371">
</trkpt>
<trkpt lat="38.216952196" lon="-95.287028695">
</trkpt>
<trkpt lat="38.214843778" lon="-95.287923752">
</trkpt>
<trkpt lat="38.213681518" lon="-95.28840595">
</trkpt>
<trkpt lat="38.21254702" lon="-95.288875367">
</trkpt>
<trkpt lat="38.211054187" lon="-95.289527607">
</trkpt>
<trkpt lat="38.209992272" lon="-95.289973278">
</trkpt>
<trkpt lat="38.208750194" lon="-95.290508657">
</trkpt>
<trkpt lat="38.208473421" lon="-95.290628255">
</trkpt>
<trkpt lat="38.208277322" lon="-95.290705501">
</trkpt>
<trkpt lat="38.208067216" lon="-95.290779776">
</trkpt>
<trkpt lat="38.20789913" lon="-95.290833254">
</trkpt>
<trkpt lat="38.207763727" lon="-95.290874848">
</trkpt>
<trkpt lat="38.207489077" lon="-95.290939542">
</trkpt>
<trkpt lat="38.207396157" lon="-95.290963267">
</trkpt>
<trkpt lat="38.207203831" lon="-95.291005461">
</trkpt>
<trkpt lat="38.20699345" lon="-95.291042348">
</trkpt>
<trkpt lat="38.206739076" lon="-95.291077441">
</trkpt>
<trkpt lat="38.206650528" lon="-95.291086122">
</trkpt>
<trkpt lat="38.206458714" lon="-95.291097573">
</trkpt>
<trkpt lat="38.206101524" lon="-95.291109557">
</trkpt>
<trkpt lat="38.205884407" lon="-95.291103615">
</trkpt>
<trkpt lat="38.205620598" lon="-95.291085789">
</trkpt>
<trkpt lat="38.205246178" lon="-95.291037556">
</trkpt>
<trkpt lat="38.205109618" lon="-95.29102262">
</trkpt>
<trkpt lat="38.204584259" lon="-95.290917548">
</trkpt>
<trkpt lat="38.204033054" lon="-95.290785718">
</trkpt>
<trkpt lat="38.203015143" lon="-95.290556932">
</trkpt>
<trkpt lat="38.202282819" lon="-95.290380166">
</trkpt>
<trkpt lat="38.201064999" lon="-95.290113179">
</trkpt>
<trkpt lat="38.200313864" lon="-95.289930071">
</trkpt>
<trkpt lat="38.199244532" lon="-95.289683478">
</trkpt>
<trkpt lat="38.198455989" lon="-95.28951592">
</trkpt>
<trkpt lat="38.198267479" lon="-95.289470022">
</trkpt>
<trkpt lat="38.197357335" lon="-95.289277285">
</trkpt>
<trkpt lat="38.197103487" lon="-95.289231887">
</trkpt>
<trkpt lat="38.196820967" lon="-95.289190293">
</trkpt>
<trkpt lat="38.196552455" lon="-95.289160583">
</trkpt>
<trkpt lat="38.196267598" lon="-95.289130873">
</trkpt>
<trkpt lat="38.195936042" lon="-95.289107105">
</trkpt>
<trkpt lat="38.195648848" lon="-95.289098192">
</trkpt>
<trkpt lat="38.195207452" lon="-95.289092104">
</trkpt>
<trkpt lat="38.195062778" lon="-95.289089566">
</trkpt>
<trkpt lat="38.194428298" lon="-95.289119991">
</trkpt>
<trkpt lat="38.194388114" lon="-95.289124078">
</trkpt>
<trkpt lat="38.193890633" lon="-95.289169496">
</trkpt>
<trkpt lat="38.193194798" lon="-95.289270423">
</trkpt>
<trkpt lat="38.192057085" lon="-95.289470022">
</trkpt>
<trkpt lat="38.189091087" lon="-95.289983985">
</trkpt>
<trkpt lat="38.18554688" lon="-95.29062644">
</trkpt>
<trkpt lat="38.179422148" lon="-95.291718612">
</trkpt>
<trkpt lat="38.1753961" lon="-95.29243602">
</trkpt>
<trkpt lat="38.174218267" lon="-95.292650171">
</trkpt>
<trkpt lat="38.173806679" lon="-95.292759928">
</trkpt>
<trkpt lat="38.173067339" lon="-95.292966707">
</trkpt>
<trkpt lat="38.172593669" lon="-95.29312001">
</trkpt>
<trkpt lat="38.171831307" lon="-95.293444443">
</trkpt>
<trkpt lat="38.171444517" lon="-95.293619138">
</trkpt>
<trkpt lat="38.171141013" lon="-95.293783896">
</trkpt>
<trkpt lat="38.170769031" lon="-95.293975657">
</trkpt>
<trkpt lat="38.170385039" lon="-95.29420383">
</trkpt>
<trkpt lat="38.170219669" lon="-95.29430009">
</trkpt>
<trkpt lat="38.169790827" lon="-95.29456748">
</trkpt>
<trkpt lat="38.169283501" lon="-95.294916869">
</trkpt>
<trkpt lat="38.169039647" lon="-95.295091564">
</trkpt>
<trkpt lat="38.168489714" lon="-95.295530509">
</trkpt>
<trkpt lat="38.167740184" lon="-95.296172963">
</trkpt>
<trkpt lat="38.167076314" lon="-95.296815418">
</trkpt>
<trkpt lat="38.166176878" lon="-95.297811222">
</trkpt>
<trkpt lat="38.166020835" lon="-95.297986503">
</trkpt>
<trkpt lat="38.165816212" lon="-95.298243197">
</trkpt>
<trkpt lat="38.165581675" lon="-95.298568063">
</trkpt>
<trkpt lat="38.165205004" lon="-95.299066438">
</trkpt>
<trkpt lat="38.16400653" lon="-95.300621923">
</trkpt>
<trkpt lat="38.163902674" lon="-95.300756551">
</trkpt>
<trkpt lat="38.163767902" lon="-95.30091543">
</trkpt>
<trkpt lat="38.163723052" lon="-95.300967719">
</trkpt>
<trkpt lat="38.163689415" lon="-95.301020009">
</trkpt>
<trkpt lat="38.163668859" lon="-95.301069922">
</trkpt>
<trkpt lat="38.163618402" lon="-95.301340877">
</trkpt>
<trkpt lat="38.163594108" lon="-95.301476354">
</trkpt>
<trkpt lat="38.163575421" lon="-95.301538151">
</trkpt>
<trkpt lat="38.163549258" lon="-95.301599948">
</trkpt>
<trkpt lat="38.163515621" lon="-95.301645107">
</trkpt>
<trkpt lat="38.163474508" lon="-95.301683135">
</trkpt>
<trkpt lat="38.163433395" lon="-95.301711657">
</trkpt>
<trkpt lat="38.16309328" lon="-95.30182812">
</trkpt>
<trkpt lat="38.163052167" lon="-95.301856642">
</trkpt>
<trkpt lat="38.163012923" lon="-95.301897047">
</trkpt>
<trkpt lat="38.162945647" lon="-95.301984989">
</trkpt>
<trkpt lat="38.162399136" lon="-95.30270636">
</trkpt>
<trkpt lat="38.161233268" lon="-95.304219668">
</trkpt>
<trkpt lat="38.160741452" lon="-95.304859822">
</trkpt>
<trkpt lat="38.160174205" lon="-95.305614358">
</trkpt>
<trkpt lat="38.159335089" lon="-95.306705308">
</trkpt>
<trkpt lat="38.157976411" lon="-95.308487906">
</trkpt>
<trkpt lat="38.156578461" lon="-95.31031091">
</trkpt>
<trkpt lat="38.15457387" lon="-95.312910021">
</trkpt>
<trkpt lat="38.152731454" lon="-95.315323422">
</trkpt>
<trkpt lat="38.1513823" lon="-95.317079465">
</trkpt>
<trkpt lat="38.148298519" lon="-95.321084097">
</trkpt>
<trkpt lat="38.145664455" lon="-95.324521229">
</trkpt>
<trkpt lat="38.145064831" lon="-95.325292174">
</trkpt>
<trkpt lat="38.1444545" lon="-95.326030997">
</trkpt>
<trkpt lat="38.143994074" lon="-95.32650213">
</trkpt>
<trkpt lat="38.143501525" lon="-95.326983971">
</trkpt>
<trkpt lat="38.142880486" lon="-95.327540765">
</trkpt>
<trkpt lat="38.142259447" lon="-95.328044021">
</trkpt>
<trkpt lat="38.141467086" lon="-95.328611522">
</trkpt>
<trkpt lat="38.141028076" lon="-95.328922042">
</trkpt>
<trkpt lat="38.139164958" lon="-95.330153413">
</trkpt>
<trkpt lat="38.136252498" lon="-95.332102191">
</trkpt>
<trkpt lat="38.133093763" lon="-95.334211584">
</trkpt>
<trkpt lat="38.130577483" lon="-95.335914088">
</trkpt>
<trkpt lat="38.126637096" lon="-95.338548151">
</trkpt>
<trkpt lat="38.124035155" lon="-95.340304193">
</trkpt>
<trkpt lat="38.122193452" lon="-95.341535564">
</trkpt>
<trkpt lat="38.121772718" lon="-95.341813456">
</trkpt>
<trkpt lat="38.119603105" lon="-95.343267644">
</trkpt>
<trkpt lat="38.117575189" lon="-95.344618853">
</trkpt>
<trkpt lat="38.115510751" lon="-95.346002149">
</trkpt>
<trkpt lat="38.11340418" lon="-95.347421097">
</trkpt>
<trkpt lat="38.111662215" lon="-95.348583351">
</trkpt>
<trkpt lat="38.110590648" lon="-95.349299955">
</trkpt>
<trkpt lat="38.109347946" lon="-95.350134211">
</trkpt>
<trkpt lat="38.109224816" lon="-95.350213739">
</trkpt>
<trkpt lat="38.107712486" lon="-95.351232292">
</trkpt>
<trkpt lat="38.106236893" lon="-95.352216286">
</trkpt>
<trkpt lat="38.104351681" lon="-95.35348193">
</trkpt>
<trkpt lat="38.103416151" lon="-95.354100444">
</trkpt>
<trkpt lat="38.103338968" lon="-95.354151959">
</trkpt>
<trkpt lat="38.103277201" lon="-95.354205665">
</trkpt>
<trkpt lat="38.102173165" lon="-95.354930055">
</trkpt>
<trkpt lat="38.099043677" lon="-95.357018717">
</trkpt>
<trkpt lat="38.095619819" lon="-95.359319559">
</trkpt>
<trkpt lat="38.094792679" lon="-95.359844448">
</trkpt>
<trkpt lat="38.094264256" lon="-95.360153431">
</trkpt>
<trkpt lat="38.093936912" lon="-95.360349517">
</trkpt>
<trkpt lat="38.093651654" lon="-95.360498067">
</trkpt>
<trkpt lat="38.093357042" lon="-95.360640675">
</trkpt>
<trkpt lat="38.093038411" lon="-95.360774517">
</trkpt>
<trkpt lat="38.092963068" lon="-95.360801914">
</trkpt>
<trkpt lat="38.092566728" lon="-95.360967485">
</trkpt>
<trkpt lat="38.092178583" lon="-95.36110415">
</trkpt>
<trkpt lat="38.091673523" lon="-95.361294294">
</trkpt>
<trkpt lat="38.087712424" lon="-95.362631243">
</trkpt>
<trkpt lat="38.084069146" lon="-95.363867177">
</trkpt>
<trkpt lat="38.080580035" lon="-95.365055576">
</trkpt>
<trkpt lat="38.076730593" lon="-95.36635093">
</trkpt>
<trkpt lat="38.074695874" lon="-95.367046144">
</trkpt>
<trkpt lat="38.074587511" lon="-95.36708957">
</trkpt>
<trkpt lat="38.074536618" lon="-95.367119993">
</trkpt>
<trkpt lat="38.074491714" lon="-95.367158022">
</trkpt>
<trkpt lat="38.074452796" lon="-95.367194149">
</trkpt>
<trkpt lat="38.074412382" lon="-95.367235981">
</trkpt>
<trkpt lat="38.074377954" lon="-95.367285418">
</trkpt>
<trkpt lat="38.074345024" lon="-95.367342461">
</trkpt>
<trkpt lat="38.074303113" lon="-95.367401406">
</trkpt>
<trkpt lat="38.07424773" lon="-95.36747366">
</trkpt>
<trkpt lat="38.074211806" lon="-95.367505985">
</trkpt>
<trkpt lat="38.074175882" lon="-95.367532605">
</trkpt>
<trkpt lat="38.07412948" lon="-95.367557324">
</trkpt>
<trkpt lat="38.074090562" lon="-95.367570634">
</trkpt>
<trkpt lat="38.074048651" lon="-95.367580141">
</trkpt>
<trkpt lat="38.073854178" lon="-95.367620057">
</trkpt>
<trkpt lat="38.073743295" lon="-95.367646691">
</trkpt>
<trkpt lat="38.07365049" lon="-95.367677114">
</trkpt>
<trkpt lat="38.073562476" lon="-95.367714755">
</trkpt>
<trkpt lat="38.073424319" lon="-95.367790114">
</trkpt>
<trkpt lat="38.073346214" lon="-95.367849621">
</trkpt>
<trkpt lat="38.073190463" lon="-95.367994246">
</trkpt>
<trkpt lat="38.073132579" lon="-95.368026979">
</trkpt>
<trkpt lat="38.07308468" lon="-95.368047895">
</trkpt>
<trkpt lat="38.073033786" lon="-95.368063106">
</trkpt>
<trkpt lat="38.072978403" lon="-95.36806881">
</trkpt>
<trkpt lat="38.072890088" lon="-95.36806881">
</trkpt>
<trkpt lat="38.072773332" lon="-95.368065008">
</trkpt>
<trkpt lat="38.072728426" lon="-95.36806881">
</trkpt>
<trkpt lat="38.072685017" lon="-95.368076416">
</trkpt>
<trkpt lat="38.072632627" lon="-95.368091628">
</trkpt>
<trkpt lat="38.072584727" lon="-95.368112544">
</trkpt>
<trkpt lat="38.07253084" lon="-95.368141065">
</trkpt>
<trkpt lat="38.072476952" lon="-95.368177192">
</trkpt>
<trkpt lat="38.072381153" lon="-95.368258954">
</trkpt>
<trkpt lat="38.072217993" lon="-95.368382548">
</trkpt>
<trkpt lat="38.072144646" lon="-95.368435788">
</trkpt>
<trkpt lat="38.072077287" lon="-95.368475718">
</trkpt>
<trkpt lat="38.072026393" lon="-95.368498535">
</trkpt>
<trkpt lat="38.071976996" lon="-95.368511846">
</trkpt>
<trkpt lat="38.071932089" lon="-95.368519451">
</trkpt>
<trkpt lat="38.071894667" lon="-95.36851755">
</trkpt>
<trkpt lat="38.071854251" lon="-95.368506141">
</trkpt>
<trkpt lat="38.071814427" lon="-95.368484106">
</trkpt>
<trkpt lat="38.071795166" lon="-95.368469426">
</trkpt>
<trkpt lat="38.07175122" lon="-95.368422367">
</trkpt>
<trkpt lat="38.071730227" lon="-95.368389034">
</trkpt>
<trkpt lat="38.071704563" lon="-95.368342618">
</trkpt>
<trkpt lat="38.071688097" lon="-95.368302687">
</trkpt>
<trkpt lat="38.071679116" lon="-95.368289377">
</trkpt>
<trkpt lat="38.071668637" lon="-95.36827987">
</trkpt>
<trkpt lat="38.071647681" lon="-95.36827987">
</trkpt>
<trkpt lat="38.071458916" lon="-95.368305846">
</trkpt>
<trkpt lat="38.071405185" lon="-95.368308392">
</trkpt>
<trkpt lat="38.071370756" lon="-95.368296983">
</trkpt>
<trkpt lat="38.071340818" lon="-95.36827987">
</trkpt>
<trkpt lat="38.07131088" lon="-95.36825325">
</trkpt>
<trkpt lat="38.071277949" lon="-95.368234236">
</trkpt>
<trkpt lat="38.071255495" lon="-95.36822663">
</trkpt>
<trkpt lat="38.07122406" lon="-95.36822663">
</trkpt>
<trkpt lat="38.071110296" lon="-95.368247546">
</trkpt>
<trkpt lat="38.070932165" lon="-95.368312195">
</trkpt>
<trkpt lat="38.070454651" lon="-95.368481423">
</trkpt>
<trkpt lat="38.070111857" lon="-95.368587903">
</trkpt>
<trkpt lat="38.069471173" lon="-95.368800864">
</trkpt>
<trkpt lat="38.068470464" lon="-95.369137724">
</trkpt>
<trkpt lat="38.067543502" lon="-95.369458593">
</trkpt>
<trkpt lat="38.066498363" lon="-95.369799017">
</trkpt>
<trkpt lat="38.06076471" lon="-95.371740318">
</trkpt>
<trkpt lat="38.060067615" lon="-95.371966114">
</trkpt>
<trkpt lat="38.059322452" lon="-95.372191042">
</trkpt>
<trkpt lat="38.058792631" lon="-95.37233588">
</trkpt>
<trkpt lat="38.057951741" lon="-95.372534935">
</trkpt>
<trkpt lat="38.057794062" lon="-95.372573784">
</trkpt>
<trkpt lat="38.055632246" lon="-95.373142629">
</trkpt>
<trkpt lat="38.053830886" lon="-95.373606104">
</trkpt>
<trkpt lat="38.049833711" lon="-95.374620099">
</trkpt>
<trkpt lat="38.048150576" lon="-95.375050272">
</trkpt>
<trkpt lat="38.044049575" lon="-95.376099614">
</trkpt>
<trkpt lat="38.041233483" lon="-95.376817022">
</trkpt>
<trkpt lat="38.037903427" lon="-95.377684335">
</trkpt>
<trkpt lat="38.034166484" lon="-95.378637309">
</trkpt>
<trkpt lat="38.029915577" lon="-95.379729482">
</trkpt>
<trkpt lat="38.02845761" lon="-95.380103934">
</trkpt>
<trkpt lat="38.027927026" lon="-95.38025361">
</trkpt>
<trkpt lat="38.027728569" lon="-95.380286885">
</trkpt>
<trkpt lat="38.027638702" lon="-95.380296392">
</trkpt>
<trkpt lat="38.027533857" lon="-95.380291639">
</trkpt>
<trkpt lat="38.027406544" lon="-95.380272624">
</trkpt>
<trkpt lat="38.02729421" lon="-95.380248856">
</trkpt>
<trkpt lat="38.027159408" lon="-95.380191813">
</trkpt>
<trkpt lat="38.026943961" lon="-95.38005711">
</trkpt>
<trkpt lat="38.026871437" lon="-95.38002522">
</trkpt>
<trkpt lat="38.026669202" lon="-95.380001885">
</trkpt>
<trkpt lat="38.02659189" lon="-95.380012798">
</trkpt>
<trkpt lat="38.026541545" lon="-95.380067228">
</trkpt>
<trkpt lat="38.026499861" lon="-95.380200615">
</trkpt>
<trkpt lat="38.026489153" lon="-95.380414767">
</trkpt>
<trkpt lat="38.026489153" lon="-95.380448507">
</trkpt>
<trkpt lat="38.026481651" lon="-95.380909606">
</trkpt>
<trkpt lat="38.026474162" lon="-95.380961895">
</trkpt>
<trkpt lat="38.02646923" lon="-95.380975461">
</trkpt>
<trkpt lat="38.026436203" lon="-95.381041486">
</trkpt>
<trkpt lat="38.02637306" lon="-95.38111401">
</trkpt>
<trkpt lat="38.026313147" lon="-95.381161546">
</trkpt>
<trkpt lat="38.026271957" lon="-95.381185314">
</trkpt>
<trkpt lat="38.026227023" lon="-95.381194822">
</trkpt>
<trkpt lat="38.026182088" lon="-95.381180561">
</trkpt>
<trkpt lat="38.026095963" lon="-95.381152039">
</trkpt>
<trkpt lat="38.025867982" lon="-95.381036328">
</trkpt>
<trkpt lat="38.025718208" lon="-95.380971561">
</trkpt>
<trkpt lat="38.025557184" lon="-95.380939356">
</trkpt>
<trkpt lat="38.025399216" lon="-95.380920723">
</trkpt>
<trkpt lat="38.025313393" lon="-95.38092524">
</trkpt>
<trkpt lat="38.02514012" lon="-95.380955637">
</trkpt>
<trkpt lat="38.02354457" lon="-95.381357033">
</trkpt>
<trkpt lat="38.020889092" lon="-95.382042318">
</trkpt>
<trkpt lat="38.016830921" lon="-95.383080953">
</trkpt>
<trkpt lat="38.012173126" lon="-95.384280201">
</trkpt>
<trkpt lat="38.009796045" lon="-95.384879825">
</trkpt>
<trkpt lat="38.006144762" lon="-95.385672186">
</trkpt>
<trkpt lat="38.004343244" lon="-95.386043439">
</trkpt>
<trkpt lat="38.002162975" lon="-95.386507162">
</trkpt>
<trkpt lat="38.000275636" lon="-95.386887521">
</trkpt>
<trkpt lat="37.99998068" lon="-95.386950157">
</trkpt>
<trkpt lat="37.997944177" lon="-95.387389548">
</trkpt>
<trkpt lat="37.995755082" lon="-95.387829255">
</trkpt>
<trkpt lat="37.993949908" lon="-95.38820063">
</trkpt>
<trkpt lat="37.991772401" lon="-95.388655192">
</trkpt>
<trkpt lat="37.989784492" lon="-95.389074103">
</trkpt>
<trkpt lat="37.987920631" lon="-95.389457361">
</trkpt>
<trkpt lat="37.985768704" lon="-95.389897069">
</trkpt>
<trkpt lat="37.983579245" lon="-95.390354602">
</trkpt>
<trkpt lat="37.981576926" lon="-95.390766591">
</trkpt>
<trkpt lat="37.980492818" lon="-95.391011192">
</trkpt>
<trkpt lat="37.979961228" lon="-95.391141916">
</trkpt>
<trkpt lat="37.979492863" lon="-95.391284524">
</trkpt>
<trkpt lat="37.978876958" lon="-95.391501407">
</trkpt>
<trkpt lat="37.978570175" lon="-95.391620247">
</trkpt>
<trkpt lat="37.977695041" lon="-95.392003903">
</trkpt>
<trkpt lat="37.976720348" lon="-95.392460788">
</trkpt>
<trkpt lat="37.974492882" lon="-95.393500888">
</trkpt>
<trkpt lat="37.972317139" lon="-95.394508055">
</trkpt>
<trkpt lat="37.970373203" lon="-95.395411238">
</trkpt>
<trkpt lat="37.968312106" lon="-95.396364928">
</trkpt>
<trkpt lat="37.966065913" lon="-95.397410719">
</trkpt>
<trkpt lat="37.96431598" lon="-95.398212046">
</trkpt>
<trkpt lat="37.962814784" lon="-95.398911072">
</trkpt>
<trkpt lat="37.961072045" lon="-95.399734038">
</trkpt>
<trkpt lat="37.958783465" lon="-95.4007828">
</trkpt>
<trkpt lat="37.957619237" lon="-95.401311638">
</trkpt>
<trkpt lat="37.956874309" lon="-95.401623592">
</trkpt>
<trkpt lat="37.956138744" lon="-95.401899895">
</trkpt>
<trkpt lat="37.955777986" lon="-95.402024677">
</trkpt>
<trkpt lat="37.954105359" lon="-95.402592137">
</trkpt>
<trkpt lat="37.952240592" lon="-95.403221988">
</trkpt>
<trkpt lat="37.95047886" lon="-95.403842927">
</trkpt>
<trkpt lat="37.948731142" lon="-95.404446039">
</trkpt>
<trkpt lat="37.946772524" lon="-95.405120455">
</trkpt>
<trkpt lat="37.945031747" lon="-95.405714655">
</trkpt>
<trkpt lat="37.943295615" lon="-95.406311825">
</trkpt>
<trkpt lat="37.941533668" lon="-95.406917908">
</trkpt>
<trkpt lat="37.939706072" lon="-95.407544788">
</trkpt>
<trkpt lat="37.93835409" lon="-95.408005293">
</trkpt>
<trkpt lat="37.936020282" lon="-95.408798549">
</trkpt>
<trkpt lat="37.935982791" lon="-95.408807462">
</trkpt>
<trkpt lat="37.935945568" lon="-95.4088101">
</trkpt>
<trkpt lat="37.935917167" lon="-95.408814754">
</trkpt>
<trkpt lat="37.935446179" lon="-95.408820792">
</trkpt>
<trkpt lat="37.935059295" lon="-95.408833001">
</trkpt>
<trkpt lat="37.934954759" lon="-95.408843511">
</trkpt>
<trkpt lat="37.934946505" lon="-95.408846069">
</trkpt>
<trkpt lat="37.934909485" lon="-95.408849536">
</trkpt>
<trkpt lat="37.934902816" lon="-95.408849214">
</trkpt>
<trkpt lat="37.934763758" lon="-95.408828764">
</trkpt>
<trkpt lat="37.934482981" lon="-95.408833523">
</trkpt>
<trkpt lat="37.934485458" lon="-95.409175866">
</trkpt>
<trkpt lat="37.934480771" lon="-95.409256083">
</trkpt>
<trkpt lat="37.934466712" lon="-95.409300647">
</trkpt>
<trkpt lat="37.934443279" lon="-95.409327386">
</trkpt>
<trkpt lat="37.934410473" lon="-95.409345212">
</trkpt>
<trkpt lat="37.934357882" lon="-95.409366545">
</trkpt>
<trkpt lat="37.934078473" lon="-95.409456942">
</trkpt>
<trkpt lat="37.933493126" lon="-95.409675852">
</trkpt>
<trkpt lat="37.933373149" lon="-95.409715366">
</trkpt>
<trkpt lat="37.932758722" lon="-95.409937164">
</trkpt>
<trkpt lat="37.932362231" lon="-95.410069076">
</trkpt>
<trkpt lat="37.931881377" lon="-95.41022238">
</trkpt>
<trkpt lat="37.931363964" lon="-95.410361422">
</trkpt>
<trkpt lat="37.931051942" lon="-95.410429377">
</trkpt>
<trkpt lat="37.930552065" lon="-95.410535869">
</trkpt>
<trkpt lat="37.930455669" lon="-95.410557508">
</trkpt>
<trkpt lat="37.930258824" lon="-95.410589595">
</trkpt>
<trkpt lat="37.930053541" lon="-95.410614551">
</trkpt>
<trkpt lat="37.929648643" lon="-95.41064388">
</trkpt>
<trkpt lat="37.929222838" lon="-95.410681369">
</trkpt>
<trkpt lat="37.929155347" lon="-95.410684934">
</trkpt>
<trkpt lat="37.929099105" lon="-95.410684934">
</trkpt>
<trkpt lat="37.929054111" lon="-95.410681369">
</trkpt>
<trkpt lat="37.929020365" lon="-95.410674238">
</trkpt>
<trkpt lat="37.928975371" lon="-95.410659977">
</trkpt>
<trkpt lat="37.928916316" lon="-95.410649282">
</trkpt>
<trkpt lat="37.928854449" lon="-95.410649282">
</trkpt>
<trkpt lat="37.92878977" lon="-95.410649282">
</trkpt>
<trkpt lat="37.928713842" lon="-95.410649282">
</trkpt>
<trkpt lat="37.928674472" lon="-95.410652847">
</trkpt>
<trkpt lat="37.928623854" lon="-95.410656412">
</trkpt>
<trkpt lat="37.928584484" lon="-95.410656412">
</trkpt>
<trkpt lat="37.928550738" lon="-95.410667108">
</trkpt>
<trkpt lat="37.92851418" lon="-95.410677803">
</trkpt>
<trkpt lat="37.928483246" lon="-95.410684934">
</trkpt>
<trkpt lat="37.928446688" lon="-95.410688499">
</trkpt>
<trkpt lat="37.928404506" lon="-95.410688499">
</trkpt>
<trkpt lat="37.928376385" lon="-95.410688499">
</trkpt>
<trkpt lat="37.928328578" lon="-95.410692064">
</trkpt>
<trkpt lat="37.928300456" lon="-95.410692064">
</trkpt>
<trkpt lat="37.928198879" lon="-95.410711221">
</trkpt>
<trkpt lat="37.928034642" lon="-95.410751368">
</trkpt>
<trkpt lat="37.926849369" lon="-95.410749107">
</trkpt>
<trkpt lat="37.925805093" lon="-95.410743958">
</trkpt>
<trkpt lat="37.925685203" lon="-95.410747449">
</trkpt>
<trkpt lat="37.92382899" lon="-95.410749107">
</trkpt>
<trkpt lat="37.923082763" lon="-95.410763587">
</trkpt>
<trkpt lat="37.922951499" lon="-95.410783304">
</trkpt>
<trkpt lat="37.92282213" lon="-95.410790434">
</trkpt>
<trkpt lat="37.92271526" lon="-95.410795188">
</trkpt>
<trkpt lat="37.922555892" lon="-95.410795188">
</trkpt>
<trkpt lat="37.922479021" lon="-95.410795188">
</trkpt>
<trkpt lat="37.922426523" lon="-95.410783304">
</trkpt>
<trkpt lat="37.922387149" lon="-95.410773797">
</trkpt>
<trkpt lat="37.922340254" lon="-95.410769378">
</trkpt>
<trkpt lat="37.922102148" lon="-95.410768687">
</trkpt>
<trkpt lat="37.921500306" lon="-95.410780927">
</trkpt>
<trkpt lat="37.92136531" lon="-95.410780927">
</trkpt>
<trkpt lat="37.921320311" lon="-95.410783304">
</trkpt>
<trkpt lat="37.921205939" lon="-95.410792811">
</trkpt>
<trkpt lat="37.921057818" lon="-95.410811825">
</trkpt>
<trkpt lat="37.920900321" lon="-95.410835593">
</trkpt>
<trkpt lat="37.920784073" lon="-95.410845101">
</trkpt>
<trkpt lat="37.920620951" lon="-95.410859361">
</trkpt>
<trkpt lat="37.920542203" lon="-95.410861738">
</trkpt>
<trkpt lat="37.920433454" lon="-95.410856985">
</trkpt>
<trkpt lat="37.920137208" lon="-95.410840347">
</trkpt>
<trkpt lat="37.91993096" lon="-95.410840347">
</trkpt>
<trkpt lat="37.919685337" lon="-95.41083797">
</trkpt>
<trkpt lat="37.919469713" lon="-95.41083084">
</trkpt>
<trkpt lat="37.919102215" lon="-95.410807872">
</trkpt>
<trkpt lat="37.918922211" lon="-95.410797565">
</trkpt>
<trkpt lat="37.918731248" lon="-95.41079556">
</trkpt>
<trkpt lat="37.918565533" lon="-95.410795242">
</trkpt>
</trkseg></trk></gpx>